administrative_area_level_1,administrative_area_level_2,administrative_area_level_3,administrative_area_level_4,country,establishment,floor,hospital,lat,lng,locality,location_type,neighborhood,political,postal_code,postal_code_suffix,premise,route,street_number,subpremise
São Paulo,Osasco,,,Brazil,,,HOSPITAL MUNICIPAL ANTONIO GIGLIO,-23.5322294,-46.77717089999999,,ROOFTOP,,Centro,06013-070,,,Rua Pedro Fioreti,48,
São Paulo,Osasco,,,Brazil,,,HOSPITAL MATERNIDADE AMADOR AGUIAR,-23.5068406,-46.78808309999999,,ROOFTOP,,Piratininga,06233-020,,,Avenida Getúlio Vargas,1260,
São Paulo,Osasco,,,Brazil,,,HOSPITAL REGIONAL DR VIVALDO MARTINS SIMOES OSASCO,-23.5248485,-46.7717519,,ROOFTOP,,Presidente Altino,06216-240,,,Rua Ari Barroso,355,
São Paulo,Osasco,,,Brazil,,,PRONTO SOCORRO CONRADO CESARINO NUVOLINI,-23.5547454,-46.8020116,,ROOFTOP,,Jardim Dayaquinha,06132-002,,,Avenida João de Andrade,958,
São Paulo,Osasco,,,Brazil,,,PRONTO SOCORRO DR ANTONIO FLAVIO FRANCA,-23.5121282,-46.7755968,,ROOFTOP,,Rochdale,06223-180,,,Rua Águas da Prata,s/n,
São Paulo,Osasco,,,Brazil,,,LAR BUSSOCABA ASSISTENCIA VICENTINA,-23.5555697,-46.7766356,,ROOFTOP,,Umuarama,06036-055,,,Avenida Padre Vicente Melillo,831,
Rio de Janeiro,Rio de Janeiro,,,Brazil,,,UPA BANGU,-22.8715454,-43.4599256,,ROOFTOP,,Bangu,21870-210,,,Rua Figueiredo Camargo,S/N,
São Paulo,Santo André,,,Brazil,,,CENTRO HOSPITALAR DE SANTO ANDRE DR NEWTON DA COSTA BRANDAO,-23.6653066,-46.527221,,ROOFTOP,,Vila Assunção,09030-320,,,Avenida João Ramalho,326,
São Paulo,São José dos Campos,,,Brazil,,,UNIDADE DE PRONTO ATENDIMENTO SAUDE MENTAL,-23.2303365,-45.88537030000001,,ROOFTOP,,Jardim Satélite,12230-820,,,Rua Pituba,100,
Chihuahua,,,,Mexico,,,HOSPITAL DE CLINICAS NORTE,28.726874,-106.118453,Chihuahua,GEOMETRIC_CENTER,Alamedas IV Etapa,Chihuahua 2000,31136,,,Avenida Fedor Dostoyevzki,,
,,,,,,,IPMMI HOSPITAL MATERNO INFANTIL ANTONINHO DA ROCHA MARMO,,,,,,,,,,,,
Comunidad de Madrid,Madrid,,,Spain,,,HOSPITAL PIO XII,40.4659983,-3.6706352,Madrid,ROOFTOP,,,28016,,,Cuesta del Sagrado Corazon,4,
São Paulo,São José dos Campos,,,Brazil,,,HOSPITAL MUNICIPAL DR JOSE DE CARVALHO FLORENCE,-23.1803222,-45.854997,,ROOFTOP,,Vila Industrial,12220-280,,,Rua Saigiro Nakamura,800,
São Paulo,São José dos Campos,,,Brazil,,,ASSOCIACAO INSTITUTO CHUI DE PSIQUIATRIA,-23.207212,-45.898436,,ROOFTOP,,Jardim Maringa,12243-370,,,Praça Bom Jesus do Serimbura,nº82,
,,,,,,,CENTRO DE REFERENCIA EM MOLESTIAS INFECCIOSAS,,,,,,,,,,,,
São Paulo,Santo André,,,Brazil,,,PRONTO ATENDIMENTO DE VILA LUZITA,-23.6993173,-46.5073126,,ROOFTOP,,Vila Luzita,09171-120,,,Rua Calecute,25,
,,,,,,,UPA CENTRAL EMILIO PIRES MAGALHAES,,,,,,,,,,,,
São Paulo,São José dos Campos,,,Brazil,,,HOSPITAL DE CLINICAS SUL,-23.2378264,-45.90892789999999,,ROOFTOP,,Parque Industrial,12237-000,,,Praça Natal,55,
São Paulo,Campinas,,,Brazil,,,MATERNIDADE DE CAMPINAS,-22.89931,-47.063439,,ROOFTOP,,Vila Itapura,13023-002,,,Avenida Orosimbo Maia,165,
São Paulo,Campinas,,,Brazil,,,HOSPITAL IRMAOS PENTEADO E SANTA CASA DE CAMPINAS,-22.9006551,-47.0548017,,ROOFTOP,,Cambuí,13024-180,,,Avenida Júlio de Mesquita,571,
São Paulo,Cajuru,,,Brazil,,,CASA DE CARIDADE SAO VICENTE DE PAULO CAJURU,-21.2724725,-47.3066959,,ROOFTOP,,Jardim Santa Maria Goretti,14240-000,,,R. Doutor Milton Mourão de Mattos,460,
São Paulo,Jaguariúna,,,Brazil,,,HOSPITAL MUNICIPAL WALTER FERRARI,-22.7026202,-46.9953435,,ROOFTOP,,Centro,13820-000,,,Rua Amazonas,s/n,
São Paulo,Cosmópolis,,,Brazil,,,HOSPITAL BENEFICENTE SANTA GERTRUDES,-22.6495818,-47.1970513,,ROOFTOP,,Jardim de Faveri,13150-000,,,Rua Ramos de Azevedo,66,
São Paulo,Itatiba,,,Brazil,,,SANTA CASA DE MISERICORDIA DE ITATIBA,-23.0074174,-46.8331177,,ROOFTOP,,Centro,13253-900,,,Avenida Saudade,43,
São Paulo,Jaborandi,,,Brazil,,,HOSPITAL MUNICIPAL DR AMADEU PAGLIUSO,-20.6897899,-48.4162732,,ROOFTOP,,,14775-000,,,Rua Doutor Amadeu Pagliuso,337-449,
São Paulo,Mongaguá,,,Brazil,,,HOSPITAL E MATERNIDADE DR ADONIRAN CORREIA CAMPOS MONGAGUA,-24.0905957,-46.613568,,ROOFTOP,,Centro,11730-000,,,Avenida São Paulo,826,
Kansas,Johnson County,,,United States,,,SANTA CASA,38.907624,-94.795457,Olathe,ROOFTOP,,,66061,2950,,North Ridgeview Road,1600,
São Paulo,Caçapava,,,Brazil,,,HOSPITAL E MATERNIDADE NOSSA SENHORA DA AJUDA,-23.1042811,-45.705188,,ROOFTOP,,Centro,12281-450,,,Avenida Doutor Pereira de Mattos,63,
São Paulo,São José dos Campos,,,Brazil,,,SANTA CASA DE MISERICORDIA SAO JOSE,-23.1849299,-45.884014,,ROOFTOP,,Centro,12210-000,,,Rua Vilaça,540,
Distrito Federal,Brasília,,Taguatinga,Brazil,,,HOSPITAL ANCHIETA,-15.8235069,-48.0668538,,GEOMETRIC_CENTER,,Setor C Norte,72115-700,,,,,
São Paulo,Jaboticabal,,,Brazil,,,HOSPITAL E MATERNIDADE SANTA ISABEL DE JABOTICABAL,-21.2555666,-48.3259557,,ROOFTOP,,Centro,14870-810,,,Rua Floriano Peixoto,1387,
São Paulo,Marília,,,Brazil,,,HCFAMEMA HOSP CLINICO CIRURGICO,-22.2270257,-49.9357465,,ROOFTOP,,Fragata,17519-080,,,Rua Doutor Reinaldo Machado,255,
,,,,,,,HCFAMEMA UNIDADE MATERNO INFANTIL,,,,,,,,,,,,
São Paulo,Santos,,,Brazil,,,SANTA CASA DE SANTOS,-23.944524,-46.33643499999999,,ROOFTOP,,Jabaquara,11075-101,,,Avenida Doutor Cláudio Luís da Costa,50,
Porto,,,,Portugal,,,HOSPITAL SANTO ANTONIO,41.1472269,-8.6195355,Porto,GEOMETRIC_CENTER,,,4099-001,,,Largo do Professor Abel Salazar,,
São Paulo,Guariba,,,Brazil,,,SANTA CASA DE GUARIBA,-21.3648737,-48.2251015,,ROOFTOP,,Altos do Jardim Boa Vista,14840-000,,,Rua Nelo Petrine,1740,
São Paulo,Itapeva,,,Brazil,,,SANTA CASA DE MISERICORDIA DE ITAPEVA,-23.9882923,-48.8770084,,ROOFTOP,,Centro,18400-030,,,Rua Santos Dumont,433,
São Paulo,São Paulo,,,Brazil,,,HOSPITAL DIA DA REDE HORA CERTA BUTANTA,-23.5863252,-46.7323941,,ROOFTOP,,Butantã,05535-100,,,Rua João Guerra,247,
,,,,,,,HOSPITAL MUNICIPAL UNIVERSITARIO,,,,,,,,,,,,
São Paulo,Monte Alto,,,Brazil,,,SANTA CASA DE MONTE ALTO,-21.2655414,-48.5019758,,ROOFTOP,,Centro,15910-000,,,Rua Carlos Kielander,396,
São Paulo,Teodoro Sampaio,,,Brazil,,,HOSPITAL REGIONAL DE TEODORO SAMPAIO,-22.5334861,-52.1708268,,ROOFTOP,,Centro,19280-000,,,Rua Trifônio Infante Algarin,1430,
São Paulo,São Paulo,,,Brazil,,,INSTITUTO DE INFECTOLOGIA EMILIO RIBAS SAO PAULO,-23.5558033,-46.6675382,,ROOFTOP,,Pacaembu,01246-900,,,Avenida Doutor Arnaldo,165,
São Paulo,São Caetano do Sul,,,Brazil,,,PRONTO SOCORRO CENTRAL SAO CAETANO DO SUL,-23.617119,-46.5723689,,ROOFTOP,,Centro,09510-112,,,Rua Manoel Coelho,845,
São Paulo,Taboão da Serra,,,Brazil,,,PRONTO SOCORRO DO TABOAO,-23.6147783,-46.7782171,,ROOFTOP,,Jardim Helena,06765-465,,,Estrada São Francisco,2400,
São Paulo,Campinas,,,Brazil,,,CENTRO DE ATENCAO INTEGRAL A SAUDE DA MULHER,-22.8279155,-47.0657783,,ROOFTOP,,Cidade Universitária,13083-881,,,Rua Alexander Fleming,101,
São Paulo,São Bernardo do Campo,,,Brazil,,,PRONTO SOCORRO RUDGE RAMOS,-23.6553785,-46.5742749,,ROOFTOP,,Rudge Ramos,09624-070,,,Rua Ângela Tomé,256,
São Paulo,São Bernardo do Campo,,,Brazil,,,PRONTO SOCORRO BAETA NEVES,-23.6998662,-46.5438421,,ROOFTOP,,Baeta Neves,09760-001,,,Rua dos Vianas,933,
São Paulo,Suzano,,,Brazil,,,PRONTO SOCORRO MUNICIPAL DE SUZANO,-23.5521348,-46.30599309999999,,ROOFTOP,,Vila Figueira,08676-410,,,Rua Kaneji Kodama,1459,
São Paulo,Guarulhos,,,Brazil,,,HOSPITAL MATERNIDADE JESUS JOSE E MARIA,-23.4511671,-46.5310196,,ROOFTOP,,Parque Renato Maia,07114-000,,,Avenida Doutor Renato de Andrade Maia,1337,
São Paulo,Indaiatuba,,,Brazil,,,AMBULAT DE ESPECIALIDADES E HOSPITAL DIA DR RENATO RIGGIO JR,-23.088084,-47.2023671,,ROOFTOP,,Vila Vitoria I,13338-010,,,Avenida Visconde de Indaiatuba,199,
São Paulo,Santos,,,Brazil,,,SECAO PRONTO SOCORRO CENTRAL SEPROS C,-23.9446497,-46.3358634,,ROOFTOP,,Jabaquara,11075-101,,,Avenida Doutor Cláudio Luís da Costa,280,
,,,,,,,PIZARRO HOSPITAL DO OLHO LTDA EPP,,,,,,,,,,,,
São Paulo,São Bernardo do Campo,,,Brazil,,,PRONTO SOCORRO RIACHO GRANDE,-23.781974,-46.5298759,,ROOFTOP,,Rio Grande,09830-291,,,Rua Marcílio Conrado,333,
São Paulo,Monte Azul Paulista,,,Brazil,,,HOSPITAL SENHOR BOM JESUS,-20.9052836,-48.6375904,,ROOFTOP,,Centro,14730-000,,,Rua Rui Barbosa,267,
Rio de Janeiro,Rio de Janeiro,,,Brazil,,,MATERNIDADE FERNANDO MAGALHAES,-22.8951534,-43.2257676,,ROOFTOP,,São Cristóvão,20921-400,,,Rua General José Cristino,87,
São Paulo,São Simão,,,Brazil,,,SANTA CASA DE MISERICORDIA DE SAO SIMAO,-21.479101,-47.5507915,,ROOFTOP,,Centro,14200-000,,,Rua Bandeira Vilela,185,
São Paulo,Vista Alegre do Alto,,,Brazil,,,UNIDADE MISTA DE VISTA ALEGRE DO ALTO VISTA ALEGRE DO ALTO,-21.1749728,-48.6303866,,ROOFTOP,,Centro,15920-000,,,Rua 18 de Fevereiro,27,
São Paulo,Nova Odessa,,,Brazil,,,HOSPITAL MUNICIPAL DR ACILIO CARREON GARCIA,-22.7802026,-47.30002899999999,,ROOFTOP,,Bosque dos Cedros,13460-000,,,Rua Aristídes Bassora,s/n,
São Paulo,Bauru,,,Brazil,,,HOSPITAL MANOEL DE ABREU BAURU,-22.3287856,-49.1010471,,ROOFTOP,,Vila Souto,17051-110,,,Rua Salvador Filardi,6-88,
Lisboa,,,,Portugal,,,HOSPITAL MUNICIPAL DE QUELUZ,38.7551048,-9.2532836,Queluz,GEOMETRIC_CENTER,,,2745-107,,,Rua Dom Fernando II,,
São Paulo,São Paulo,,,Brazil,,,HOSPITAL ISRAELITA ALBERT EINSTEIN,-23.6000507,-46.7152458,,ROOFTOP,,Jardim Leonor,05652-900,,,Avenida Albert Einstein,627,
São Paulo,Silveiras,,,Brazil,,,UNIDADE MISTA DE SAUDE DE SILVEIRAS,-22.66478,-44.8520755,,GEOMETRIC_CENTER,,,,,,,,
São Paulo,São Paulo,,,Brazil,,,HOSP DO SERV PUB EST FCO MORATO DE OLIVEIRA SAO PAULO,-23.5972799,-46.65445949999999,,ROOFTOP,,Vila Clementino,04029-000,,,Rua Pedro de Toledo,1800,
São Paulo,Catanduva,,,Brazil,,,HOSPITAL PSIQUIATRICO MAHATMA GANDHI,-21.1549585,-48.9717122,,ROOFTOP,,Jardim Soto,15810-150,,,Rua Duartina,1311,
State of São Paulo,Presidente Prudente,,Conjunto Habitacional Ana,Brazil,,,HOSPITAL ALLAN KARDEC PRES PRUDENTE,-22.121126,-51.393006,Presidente Prudente,APPROXIMATE,,,,,,,,
São Paulo,Presidente Prudente,,,Brazil,,,HOSPITAL PSIQUIATRICO ESPIRITA BEZERRA DE MENEZES P PRUDENT,-22.15717,-51.392061,,GEOMETRIC_CENTER,,Umuarama,19053-680,,,,,
State of São Paulo,Americana,,,Brazil,,,HOSPITAL MUNICIPAL DR WALDEMAR TEBALDI,-22.7416722,-47.3085832,,GEOMETRIC_CENTER,,,,,,,,
São Paulo,Mauá,,,Brazil,,,UPA BARAO DE MAUA,-23.6666671,-46.4290568,,ROOFTOP,,São João,09340-440,,,Avenida Barão,3567,
São Paulo,São Paulo,,,Brazil,,,HOSPITAL MATERNIDADE INTERLAGOS,-23.706896,-46.7019715,,ROOFTOP,,Jardim Leblon,04802-190,,,Rua Leonor Alvim,211,
São Paulo,São Paulo,,,Brazil,,,HOSPITAL GERAL DE PEDREIRA,-23.6811512,-46.6764103,,ROOFTOP,,Vila Campo Grande,04455-170,,,Rua João Francisco de Moura,251,
São Paulo,São Paulo,,,Brazil,,,HOSPITAL HELIOPOLIS UNIDADE DE GESTAO ASSISTENCIAL I SP,-23.6084781,-46.5934894,,ROOFTOP,,Sacomã,04231-030,,,Rua Cônego Xavier,276,
São Paulo,São Paulo,,,Brazil,,,PAM VARZEA DO CARMO NGA 63 SAO PAULO,-23.5563612,-46.6253767,,ROOFTOP,,Cambuci,01518-020,,,Rua Leopoldo Miguez,327,
São Paulo,São Paulo,,,Brazil,,,AMBULATORIO DE ESPECIALIDADES DR GERALDO PAULO BOURROUL,-23.5489553,-46.6446793,,ROOFTOP,,República,01050-906,,,Rua Martins Fontes,208,
São Paulo,São Bernardo do Campo,,,Brazil,,,HOSPITAL E PRONTO SOCORRO CENTRAL,-23.7154563,-46.5556394,,ROOFTOP,,Centro,09720-375,,,Rua Secondo Modolin,490,
São Paulo,Catanduva,,,Brazil,,,HOSPITAL SAO DOMINGOS DE CATANDUVA,-21.1561032,-48.9853305,,ROOFTOP,,Parque Joaquim Lopes,15800-640,,,Rua Doutor Cervantes Ângulo,255,
São Paulo,São Paulo,,,Brazil,,,CAISM DR DAVID CAPISTRANO DA COSTA FILHO DA AGUA FUNDA SP,-23.6437618,-46.6281417,,ROOFTOP,,Vila Água Funda,04301-002,,,Avenida Miguel Estéfno,3030,
São Paulo,São Paulo,,,Brazil,,,HOSPITAL INFANTIL DARCY VARGAS UGA III SAO PAULO,-23.5927921,-46.71092609999999,,ROOFTOP,,Morumbi,05614-040,,,Rua Doutor Seráfico de Assis Carvalho,34,
São Paulo,São Paulo,,,Brazil,,,HC DA FMUSP INSTITUTO DO CORACAO INCOR SAO PAULO,-23.5571205,-46.66772599999999,,ROOFTOP,,Cerqueira César,05403-900,,,Avenida Doutor Enéas Carvalho de Aguiar,44,
São Paulo,Embu das Artes,,,Brazil,,,UNIDADE MISTA DE SAUDE DE EMBUGUACU,-23.6488317,-46.8474631,,ROOFTOP,,Vila Cercado Grande,06803-905,,,Avenida Elias Yazbek,1415,
California,Orange County,,,United States,,,HOSPITAL MUNICIPAL SANTA ANA,33.7622333,-117.8916237,Santa Ana,ROOFTOP,Riverview,,92706,,,College Avenue,1901,
State of São Paulo,Miracatu,,,Brazil,,,UNIDADE HOSPITALAR DE MIRACATU MIRACATU,-24.2859701,-47.4584548,Miracatu,APPROXIMATE,,,11850-000,,,,,
São Paulo,São Paulo,,,Brazil,,,HOSP MUN MATERNIDADE PROF MARIO DEGNI,-23.5781841,-46.7654498,,ROOFTOP,,Vila Antonio,05376-010,,,Juventus,562,
São Paulo,São Paulo,,,Brazil,,,HOSP DA STA CASA DE STO AMARO,-23.6502349,-46.70504260000001,,ROOFTOP,,Santo Amaro,04733-100,,,Rua Isabel Schmidt,59,
São Paulo,São Paulo,,,Brazil,,,HOSPITAL SAO LUIZ GONZAGA,-23.4592111,-46.5824925,,ROOFTOP,,Vila Nilo,02276-140,,,Rua Michel Ouchana,94,
São Paulo,São Paulo,,,Brazil,,,HOSPITAL UNIVERSITARIO DA USP SAO PAULO,-23.5650797,-46.7406904,,ROOFTOP,,Butantã,05508-000,,,Avenida Professor Lineu Prestes,2565,
São Paulo,São Paulo,,,Brazil,,,HOSP SOROCABANA,-23.5240009,-46.7012688,,ROOFTOP,,Lapa,05041-001,,,Rua Faustolo,1633,
São Paulo,Itatinga,,,Brazil,,,HOSPITAL DE ITATINGA,-23.1026208,-48.6126709,,ROOFTOP,,Centro,18690-000,,,PRACA SAO ROQUE,48,
São Paulo,São Paulo,,,Brazil,,,CASA DA CRIANCA BETINHO,-23.5602125,-46.5323629,,ROOFTOP,,Vila Carrao,03433-020,,,Rua Vacanga,300,
São Paulo,Embu das Artes,,,Brazil,,,UNIDADE MISTA E MATERNIDADE CENTRAL,-23.6488317,-46.8474631,,ROOFTOP,,Vila Cercado Grande,06803-905,,,Avenida Elias Yazbek,1415,
,,,,,,,UNIDADE MISTA DE ATENDIMENTO INFANTIL,,,,,,,,,,,,
São Paulo,Guaratinguetá,,,Brazil,,,HOSPITAL DIA IRMAO ALTINO SAUDE MENTAL,-22.815904,-45.2004853,,ROOFTOP,,Campo do Galvão,12505-070,,,Rua Álvares Cabral,381,
São Paulo,São Paulo,,,Brazil,,,HOSPITAL AMPARO MATERNAL,-23.60011,-46.6435554,,ROOFTOP,,Vila Clementino,04040-033,,,Rua Loefgren,2189-2317,
São Paulo,São José do Rio Preto,,,Brazil,,,HOSPITAL DE BASE DE SAO JOSE DO RIO PRETO,-20.8284099,-49.3970743,,ROOFTOP,,Vila Sao Jose,15090-000,,,Avenida Brigadeiro Faria Lima,5544,
São Paulo,São Paulo,,,Brazil,,,CAISM PHILIPPE PINEL SAO PAULO,-23.4856943,-46.7242905,,ROOFTOP,,Vila Pirituba,02938-000,,,Avenida Raimundo Pereira de Magalhães,5214,
São Paulo,São Paulo,,,Brazil,,,HOSPITAL ESTADUAL DE VILA ALPINA ORG SOCIAL SECONCI SAO PAUL,-23.5930215,-46.5612185,,ROOFTOP,,Jardim Avelino,03227-000,,,Avenida Francisco Falconi,1501,
,,,,,,,HOSPITAL DR LEOPOLDO BEVILACQUA,,,,,,,,,,,,
São Paulo,São Paulo,,,Brazil,,,HOSP MUN DR JOSE SOARES HUNGRIA,-23.484612,-46.7276156,,ROOFTOP,,Jardim Cidade Pirituba,02945-000,,,Avenida Menotti Laudísio,100,
São Paulo,São Paulo,,,Brazil,,,HOSP DOM ANTONIO DE ALVARENGA,-23.5963873,-46.6088803,,ROOFTOP,,Ipiranga,04263-200,,,Avenida Nazaré,1361,
São Paulo,São Paulo,,,Brazil,,,HOSP STA MARCELINA SAO PAULO,-23.5547713,-46.46147020000001,,ROOFTOP,,Vila Carmosina,08270-070,,,Rua Santa Marcelina,177,
São Paulo,São Paulo,,,Brazil,,,HOSPITAL SAO PAULO HOSPITAL DE ENSINO DA UNIFESP SAO PAULO,-23.5975141,-46.6436104,,ROOFTOP,,Vila Clementino,04024-002,,,Rua Napoleão de Barros,715,
São Paulo,São Paulo,,,Brazil,,,HOSPITAL GERAL DE SAO MATEUS SAO PAULO,-23.5945818,-46.486687,,ROOFTOP,,Cidade São Mateus,03958-000,,,Rua Ângelo de Cândia,540/541,
São Paulo,São Paulo,,,Brazil,,,HOSPITAL BANDEIRANTES,-23.558191,-46.63477289999999,,ROOFTOP,,Liberdade,01507-000,,,Rua Barão de Iguape,209,
,,,,,,,HOSPITAL SAO VICENTE DE PAULA DE ARANDU,,,,,,,,,,,,
São Paulo,São Paulo,,,Brazil,,,UNIDADE DE GESTAO ASSISTENCIAL II HOSPITAL IPIRANGA SP,-23.5842652,-46.6116355,,ROOFTOP,,Vila Monumento,04262-000,,,Avenida Nazaré,28,
São Paulo,São Paulo,,,Brazil,,,A C CAMARGO CANCER CENTER,-23.5653531,-46.635131,,ROOFTOP,,Liberdade,01525-001,,,Rua Tamandaré,753,
São Paulo,Águas de Lindóia,,,Brazil,,,HOSPITAL GERAL DR FRANCISCO TOZZI AGUAS DE LINDOIA,-22.4736418,-46.6342968,,ROOFTOP,,Jardim São Francisco,13940-000,,,Rua Santa Catarina,158,
,,,,,,,HOSPITAL MUNICIPAL DA MULHER DR JOAO LUIS J ROSSETO,,,,,,,,,,,,
São Paulo,São Paulo,,,Brazil,,,CONJUNTO HOSPITALAR DO MANDAQUI SAO PAULO,-23.4849265,-46.6315935,,ROOFTOP,,Santana,02432,,,Rua Voluntários da Pátria,4301,
Pernambuco,Jaboatão dos Guararapes,,,Brazil,,,HOSPITAL NOSSA SENHORA DA PIEDADE,-8.1711666,-34.9156207,,ROOFTOP,,Piedade,54410-010,,,Avenida Bernardo Vieira de Melo,2071,
São Paulo,São Paulo,,,Brazil,,,INST BRASILEIRO DE CONTROLE DO CANCER IBCC,-23.5473291,-46.6002579,,ROOFTOP,,Brás,03102-002,,,Avenida Alcântara Machado,2576,
Rio de Janeiro,Nova Iguaçu,,,Brazil,,,CASA DE SAUDE NOSSA SENHORA DE FATIMA,-22.7628595,-43.4455795,,ROOFTOP,,Centro,26262-070,,,Rua Coronel Bernardino de Melo,1465,
São Paulo,São Paulo,,,Brazil,,,HOSPITAL GERAL SANTA MARCELINA DE ITAIM PAULISTA SAO PAULO,-23.4923813,-46.3892642,,ROOFTOP,,Itaim Paulista,08115-100,,,Avenida Marechal Tito,6035,
São Paulo,São Paulo,,,Brazil,,,HOSP MUN PROF DR WALDOMIRO DE PAULA,-23.5309573,-46.4449297,,ROOFTOP,,Itaquera,08210-590,,,Rua Augusto Carlos Bauman,1074,
São Paulo,Adamantina,,,Brazil,,,SANTA CASA DE ADAMANTINA,-21.6929321,-51.07084210000001,,ROOFTOP,,Vila Cicma,17800-000,,,Rua Joaquim Luís Vian,209,
,,,,,,,ASSOC AACD V CLEMENTINO,,,,,,,,,,,,
São Paulo,São Paulo,,,Brazil,,,HOSPITAL GERAL DO GRAJAU PROF LIBER JOHN ALPHONSE DI DIO SP,-23.729083,-46.690901,,ROOFTOP,,Parque das Nações,04822-030,,,Rua Francisco Octávio Pacca,180,
São Paulo,São Paulo,,,Brazil,,,HOSPITAL E MATERNIDADE LEONOR MENDES DE BARROS SAO PAULO,-23.535934,-46.588712,,ROOFTOP,,Belenzinho,03064-000,,,Avenida Celso Garcia,2477,
São Paulo,São Paulo,,,Brazil,,,HOSP MONUMENTO CEHM,-23.5942251,-46.5967872,,ROOFTOP,,Ipiranga,03584-000,,,Rua Lima e Silva,985,
São Paulo,São Paulo,,,Brazil,,,CENTRO DE REFERENCIA E TREINAMENTO DSTAIDS SAO PAULO,-23.596873,-46.635808,,ROOFTOP,,Vila Mariana,04121-000,,,Rua Santa Cruz,81,
São Paulo,São Paulo,,,Brazil,,,HC DA FMUSP HOSPITAL DAS CLINICAS SAO PAULO,-23.5574506,-46.66990149999999,,ROOFTOP,,Cerqueira César,05403-000,,,Avenida Doutor Enéas Carvalho de Aguiar,255,
Rio de Janeiro,Rio de Janeiro,,,Brazil,,,HOSPITAL SAO LUCAS,-22.9721921,-43.1928724,,ROOFTOP,,Copacabana,22061-080,,,Travessa Frederico Pamplona,32,
São Paulo,Ribeirão Preto,,,Brazil,,,HOSPITAL SANTA TEREZA DE RIBEIRAO PRETO,-21.2058434,-47.8284618,,ROOFTOP,,Jardim Sumare,14026-390,,,Avenida Adelmo Perdizza,495,
São Paulo,Leme,,,Brazil,,,SANTA CASA DE LEME,-22.1899384,-47.392191,,ROOFTOP,,Jardim Amália,13610-970,,,Rua Padre Julião,1213,
São Paulo,Itapevi,,,Brazil,,,HOSPITAL GERAL DE ITAPEVI,-23.5379257,-46.9427503,,ROOFTOP,,Jardim Nova Itapevi,06694-230,,,Rua Jesuino Joaquim da Silva,S/n,
São Paulo,Sales Oliveira,,,Brazil,,,HOSPITAL SANTA RITA SALES DE OLIVEIRA,-20.7714777,-47.8355481,,ROOFTOP,,CENTRO,14660-000,,,Rua Sete de Setembro,589,
São Paulo,Presidente Venceslau,,,Brazil,,,SANTA CASA DE PRESIDENTE VENCESLAU,-21.8715436,-51.8412825,,ROOFTOP,,Centro,19400-000,,,Rua Antônio Vila Nova,66,
Maryland,Baltimore County,,,United States,,,HOSPITAL STELLA MARIS,39.4588995,-76.5970699,Lutherville-Timonium,GEOMETRIC_CENTER,,,21093,,,,,
São Paulo,Santo Antônio da Alegria,,,Brazil,,,UNIDADE MISTA DE SANTO ANTONIO DA ALEGRIA,-21.0910319,-47.15195,Santo Antônio da Alegria,APPROXIMATE,,,14390-000,,,,,
São Paulo,Piedade,,,Brazil,,,HOSPITAL PSIQUIATRICO VALE DAS HORTENCIAS PIEDADE,-23.8265429,-47.3835323,,GEOMETRIC_CENTER,,,18170-000,,,Estr. Municipal,,
São Paulo,Birigui,,,Brazil,,,SANTA CASA DE BIRIGUI,-21.2821465,-50.3359329,,ROOFTOP,,Patrimonio Silvares,16201-000,,,Rua Doutor Carlos Carvalho Rosa,115,
São Paulo,São Paulo,,,Brazil,,,CENTRO DE REFERENCIA DA SAUDE DA MULHER SAO PAULO,-23.5514066,-46.64442880000001,,GEOMETRIC_CENTER,,Bela Vista,01312-000,,,Rua Santo Antônio,,
São Paulo,Taquaritinga,,,Brazil,,,SANTA CASA DE TAQUARITINGA,-21.4047308,-48.5044607,,ROOFTOP,,Centro,15900-037,,,Praça Doutor José Furiatti,153,
São Paulo,São Paulo,,,Brazil,,,HOSP MUN INFANTIL MENINO JESUS,-23.5602035,-46.6473659,,ROOFTOP,,Bela Vista,01329-010,,,Rua dos Franceses,250,
São Paulo,Monte Mor,,,Brazil,,,ASSOCIACAO HOSPITAL BENEFICENTE SAGRADO CORACAO DE JESUS,-22.9504874,-47.30620709999999,,ROOFTOP,,Centro,13190-000,,,Avenida Jânio Quadros,1000,
Rio Grande do Sul,Porto Alegre,,,Brazil,,,HOSPITAL ESPIRITA,-30.0867286,-51.2068826,,ROOFTOP,,Teresópolis,91720-440,,,Praça Simões Lopes Neto,175,
São Paulo,Guaíra,,,Brazil,,,SANTA CASA DE GUAIRA,-20.3258339,-48.3184649,,ROOFTOP,,Centro,14790-000,,,Rua Vinte e Quatro,872,
São Paulo,Pedreira,,,Brazil,,,FUNBEPE PEDREIRA,-22.7446584,-46.9174599,,ROOFTOP,,Vila Canesso,13920-000,,,Rua Henriqueta Rondelo Canesso,161,
São Paulo,Patrocínio Paulista,,,Brazil,,,SANTA CASA DE PATROCINIO PAULISTA,-20.6427994,-47.2813945,,ROOFTOP,,Centro,14415-000,,,Rua Cônego Peregrino,1280,
São Paulo,Campinas,,,Brazil,,,REAL SOCIEDADE PORTUGUESA DE BENEFICENCIA,-22.9040519,-47.0683876,,ROOFTOP,,Centro,13013-101,,,Rua Onze de Agosto,557,
,,,,,,,HOSPITAL DR LUIZ CAMARGO DA FONSECA E SILVA,,,,,,,,,,,,
São Paulo,Penápolis,,,Brazil,,,SANTA CASA DE PENAPOLIS,-21.423325,-50.0721577,,ROOFTOP,,Centro,16300-000,,,Avenida Santa Casa,566,
São Paulo,Ilha Solteira,,,Brazil,,,HOSPITAL REGIONAL DE ILHA SOLTEIRA,-20.4313938,-51.33925079999999,,ROOFTOP,,,15385-000,,,Alameda Bahia,618,
Goiás,Valparaíso de Goiás,,,Brazil,,,HOSPITAL NOSSA SENHORA APARECIDA,-16.0587831,-47.9835629,,GEOMETRIC_CENTER,,Parque Sao Bernardo,72870-422,,,,,
São Paulo,São Bento do Sapucaí,,,Brazil,,,SANTA CASA SAO BENTO DO SAPUCAI,-22.686975,-45.7303508,,ROOFTOP,,Centro,12490-000,,,Praça General Marcondes Salgado,34,
São Paulo,Itaquaquecetuba,,,Brazil,,,HOSPITAL GERAL DE ITAQUAQUECETUBA,-23.4722592,-46.3460864,,ROOFTOP,,Jardim Nova Itaqua,08599-280,,,Rua Rio Negro,48,
São Paulo,São Paulo,,,Brazil,,,HOSPITAL JOAO EVANGELISTA,-23.4726804,-46.6157349,,ROOFTOP,,Tucuruvi,02340-000,,,Avenida Nova Cantareira,3050,
São Paulo,São Paulo,,,Brazil,,,HOSPITAL E MATERNIDADE SANTA MARIA CRUZ AZUL,-23.5659203,-46.6221538,,ROOFTOP,,Cambuci,01538-900,,,Avenida Lins de Vasconcelos,356,
São Paulo,Araçatuba,,,Brazil,,,SANTA CASA DE ARACATUBA HOSPITAL SAGRADO CORACAO DE JESUS,-21.2079598,-50.43029629999999,,ROOFTOP,,Vila Mendonca,16015-030,,,Rua Conselheiro Oscár Rodrigues Alves,1092,
São Paulo,Cajati,,,Brazil,,,HOSPITAL MUNICIPAL REYNALDO GUERRA CAJATI,-24.7224127,-48.1104223,,ROOFTOP,,Jardim Ribeira,11950-000,,,Rua Antônio Domingues Brecho,116,
São Paulo,Sorocaba,,,Brazil,,,HOSPITAL OFTALMOLOGICO DE SOROCABA,-23.5154692,-47.4601693,,ROOFTOP,,Jardim Emilia,18031-060,,,Praça Nabek Shiroma,210,
São Paulo,Amparo,,,Brazil,,,SANTA CASA ANNA CINTRA,-22.6970126,-46.76831,,ROOFTOP,,Centro,13901-310,,,Rua Ana Cintra,332,
São Paulo,Cotia,,,Brazil,,,HOSPITAL DA GRACA COTIA,-23.6447915,-46.9145158,,ROOFTOP,,Bairro Jardim Nossa Senhora das Graças,06722-500,,,Estrada do Dae,39,
São Paulo,Pilar do Sul,,,Brazil,,,SANTA CASA PILAR DO SUL,-23.8107452,-47.7286782,,ROOFTOP,,Campo Grande,18185-000,,,Avenida Papa João XXIII,1038,
São Paulo,Aparecida d'Oeste,,,Brazil,,,SANTA CASA DE APARECIDA DOESTE,-20.4500685,-50.87913229999999,,ROOFTOP,,Centro,15735-000,,,Rua São Paulo,1235,
São Paulo,Campinas,,,Brazil,,,SERVICO DE SAUDE DR CANDIDO FERREIRA,-22.8744058,-46.9706954,,ROOFTOP,,Sousas,13106-042,,,Rua Antônio Prado,430,
São Paulo,São Paulo,,,Brazil,,,HOSPITAL LEITO IRMA ANETTE MARLENE FERNANDES DE MELLO,-23.6581746,-46.80492659999999,,ROOFTOP,,Jardim Vazame,06814-310,,,Rua São Lucas,235,
State of São Paulo,Roseira,,,Brazil,,,UNIDADE MISTA DE SAUDE DE ROSEIRA DR PAULO GUIMARAES CASTRO,-22.9008073,-45.3089655,,APPROXIMATE,,,,,,,,
São Paulo,Murutinga do Sul,,,Brazil,,,SANTA CASA DE MURUTINGA DO SUL,-20.988296,-51.2788792,,ROOFTOP,,,16950-000,,,Rua Orlando Molina,187,
São Paulo,Capão Bonito,,,Brazil,,,SANTA CASA DE CAPAO BONITO,-24.0074617,-48.3469744,,ROOFTOP,,,18300-230,,,Rua Dona Auta de Camargo Lírio,51,
São Paulo,Ribeirão Preto,,,Brazil,,,CENTRO DE REF DA SAUDE DA MULHER DE R PRETO MATER,-21.1227955,-47.7915224,,ROOFTOP,,Quintino Facci II,14070-000,,,Avenida Wanderley Taffo,330,
São Paulo,Tatuí,,,Brazil,,,SANTA CASA DE MISERICORDIA DE TATUI,-23.3522192,-47.84477039999999,,ROOFTOP,,Centro,18270-400,,,Rua Maneco Pereira,299,
São Paulo,Campos do Jordão,,,Brazil,,,SANATORIO S3 CAMPOS DO JORDAO,-22.7437608,-45.6251264,,ROOFTOP,,Vila Maria Santa Cruz,12460-000,,,Rua Harry M. Levin,925,
Rondônia,Porto Velho,,,Brazil,,,MATERNIDADE MUNICIPAL,-8.7534678,-63.8815444,,ROOFTOP,,Embratel,76820-810,,,Rua Venezuela,2350,
,,,,,,,HOSP MUN MAT ESC DR MARIO DE MORAES A SILVA,,,,,,,,,,,,
São Paulo,Américo Brasiliense,,,Brazil,,,HOSPITAL NESTOR GOULART REIS AMERICO BRASILIENSE,-21.7401452,-48.1216976,,ROOFTOP,,Centro,14820-000,,,Alameda Aldo Lupo,1620,
São Paulo,Mogi Mirim,,,Brazil,,,LAR ESPIRITA MARIA DE NAZARE MOJI MIRIM,-22.4301852,-46.9708595,,ROOFTOP,,Parque da Imprensa,13806-305,,,Avenida Nelson Patelli,79,
São Paulo,Castilho,,,Brazil,,,HOSPITAL E MATERNIDADE JOSE FORTUNA,-20.8722895,-51.4870923,,ROOFTOP,,,16920-000,,,Avenida Samira Zahr,457,
California,Santa Clara County,,,United States,,,HOSPITAL SAO JOSE,37.3629801,-121.849786,San Jose,ROOFTOP,Alum Rock,,95116,,,North Jackson Avenue,225,
California,Santa Barbara County,,,United States,,,HOSPITAL SANTA BARBARA,34.43025280000001,-119.7233637,Santa Barbara,ROOFTOP,Oak Park,,93105,,,West Pueblo Street,400,
São Paulo,São Paulo,,,Brazil,,,HOSPITAL GERAL JESUS TEIXEIRA DA COSTA GUAIANASES SAO PAULO,-23.5524756,-46.4051716,,ROOFTOP,,Jardim Sao Paulo(Zona Leste),08461-110,,,Avenida Miguel Achiole da Fonseca,135,
São Paulo,Ribeirão Preto,,,Brazil,,,HOSPITAL SAO FRANCISCO RIBEIRAO PRETO,-21.1854565,-47.8089934,,ROOFTOP,,Centro,14015-130,,,Rua Bernardino de Campos,912,
São Paulo,Panorama,,,Brazil,,,SANTA CASA DE PANORAMA,-21.3634094,-51.8595634,,ROOFTOP,,Centro,17980-000,,,Rua Manoel Fernandes da Cunha,512,
São Paulo,Palmeira D'Oeste,,,Brazil,,,SANTA CASA DE PALMEIRA DOESTE,-20.4182273,-50.7616953,,ROOFTOP,,Centro,15720-000,,,Avenida Carlos Gomes,4929,
São Paulo,Cabreúva,,,Brazil,,,HOSPITAL SAO ROQUE CABREUVA,-23.3085443,-47.1328116,,ROOFTOP,,Centro,13315-000,,,Praça Comendador Martins,S/N,
São Paulo,Sorocaba,,,Brazil,,,HOSPITAL GPACI SOROCABA,-23.5139717,-47.4643329,,ROOFTOP,,Jardim Faculdade,18030-220,,,Rua Coronel José Pedro de Oliveira,678,
São Paulo,Igarapava,,,Brazil,,,SANTA CASA DE IGARAPAVA,-20.0355505,-47.7499105,,ROOFTOP,,Centro,14540-000,,,Rua Coronel Francisco Martins,769,
São Paulo,Tanabi,,,Brazil,,,SANTA CASA DE TANABI,-20.6275881,-49.6525849,,ROOFTOP,,,15170-000,,,Avenida da Saudade,"634, Centro",
São Paulo,Serrana,,,Brazil,,,SANTA CASA DE MISERICORDIA DE SERRANA,-21.2128285,-47.5999563,,ROOFTOP,,Centro,14150-000,,,Rua João Antônio Terçariol,67,
São Paulo,Salesópolis,,,Brazil,,,SANTA CASA DE SALESOPOLIS,-23.5292991,-45.84697,,ROOFTOP,,Centro,08970-000,,,Pc Pe João Menedes,31,
São Paulo,Tabatinga,,,Brazil,,,SANTA CASA DE MISERICORDIA TABATINGA SP,-21.7384132,-48.6854592,,ROOFTOP,,Vila Rossini,14910-000,,,Rua Catanduva,206,
São Paulo,Boa Esperança do Sul,,,Brazil,,,SANTA CASA SAO VICENTE DE PAULO BOA ESPERANCA DO SUL,-21.9874574,-48.3868413,,ROOFTOP,,Centro,14930-000,,,Rua Duque de Caxias,379,
São Paulo,Guarulhos,,,Brazil,,,COMPLEXO HOSPITALAR PADRE BENTO DE GUARULHOS,-23.4654754,-46.5508621,,ROOFTOP,,Gopouva,07051-000,,,Avenida Emílio Ribas,1819,
São Paulo,Salto de Pirapora,,,Brazil,,,SANTA CASA SALTO DE PIRAPORA,-23.6557843,-47.5740845,,ROOFTOP,,Centro,18160-000,,,Avenida Carlos Chagas,67,
São Paulo,Maracaí,,,Brazil,,,HOSPITAL BENEFICENTE DE MARACAI,-22.6125769,-50.6665386,,ROOFTOP,,Centro,19840-000,,,Avenida José Bonifácio,382,
São Paulo,Buritama,,,Brazil,,,SANTA CASA DE MISERICORDIA SAO FRANCISCO BURITAMA,-21.0697313,-50.1499211,,ROOFTOP,,,15290-000,,,Rua Guilherme Guerbas,353,
São Paulo,Cravinhos,,,Brazil,,,SANTA CASA DE CRAVINHOS,-21.3373188,-47.7323738,,ROOFTOP,,Centro,14140-000,,,Avenida Rita Candida Nogueira,38,
São Paulo,Cunha,,,Brazil,,,SANTA CASA DE MIS E MATERNIDADE N SRA DA CONCEICAO CUNHA,-23.0796528,-44.9612742,,ROOFTOP,,,12530-000,,,Avenida Padre Rodolfo,320,
São Paulo,Santa Adélia,,,Brazil,,,SANTA CASA DE SANTA ADELIA,-21.2458779,-48.80791139999999,,ROOFTOP,,Vila Toninho,15950-000,,,Avenida Duque de Caxias,168,
São Paulo,São Paulo,,,Brazil,,,HOSPITAL SAO PAULO,-23.5975141,-46.6436104,,ROOFTOP,,Vila Clementino,04024-002,,,Rua Napoleão de Barros,715,
São Paulo,Campos do Jordão,,,Brazil,,,CASA DA CRIANCA HOSPITAL INFANTIL CAMPOS DO JORDAO,-22.7426708,-45.5919974,,ROOFTOP,,Abernéssia,12460-000,,,Rua Monsenhor José Vita,321,
São Paulo,Registro,,,Brazil,,,HOSPITAL SAO JOAO REGISTRO,-24.4871847,-47.8466966,,ROOFTOP,,Centro,11900-000,,,Rua Kiheiji Nasuno,165,
São Paulo,Ibiúna,,,Brazil,,,HOSPITAL MUNICIPAL DE IBIUNA IBIUNA SP,-23.6495988,-47.2177125,,ROOFTOP,,Jardim Áurea,18150-000,,,Avenida Gabriel Monteiro da Silva,888,
São Paulo,Ourinhos,,,Brazil,,,INSTITUTO AGNES DE LEAO,-22.9619271,-49.8857902,,ROOFTOP,,Jardim Santa Fe,19910,,,Rua Paschoal Henrique,400,
São Paulo,Neves Paulista,,,Brazil,,,SANTA CASA DE NEVES PAULISTA,-20.8504999,-49.63109590000001,,ROOFTOP,,Centro,15120-000,,,Rua Floriano Peixoto,95,
São Paulo,São Luís do Paraitinga,,,Brazil,,,SANTA CASA DE MISERICORDIA DE SAO LUIZ DO PARAITINGA,-23.2254389,-45.3077057,,ROOFTOP,,Centro,12140-000,,,Pc Cel Theodoro Coelho,48,
São Paulo,Socorro,,,Brazil,,,HOSPITAL DR RENATO SILVA DE SOCORRO,-22.5984112,-46.529535,,ROOFTOP,,,13960-000,,,Avenida Doutor Renato Silva,129,
São Paulo,Santos,,,Brazil,,,HOSPITAL GUILHERME ALVARO SANTOS,-23.963225,-46.319539,,ROOFTOP,,Boqueirão,11045-904,,,Rua Oswaldo Cruz,197,
São Paulo,Araraquara,,,Brazil,,,CASA CAIRBAR SCHUTEL,-21.8111226,-48.14851609999999,,ROOFTOP,,Jardim Arco-Iris,14808-362,,,Avenida Caibar Schutel,454,
São Paulo,Campinas,,,Brazil,,,HOSPITAL DAS CLINICAS DA UNICAMP DE CAMPINAS,-22.8269585,-47.064116,,ROOFTOP,,Cidade Universitária,13083-888,,,Rua Vital Brasil,251,
São Paulo,Santa Branca,,,Brazil,,,SANTA CASA DE SANTA BRANCA,-23.3990192,-45.8871395,,ROOFTOP,,Centro,12380-000,,,Praça Rui Barbosa,109,
São Paulo,Taboão da Serra,,,Brazil,,,HOSPITAL GERAL PIRAJUSSARA TABOAO DA SERRA,-23.6405883,-46.8101223,,ROOFTOP,,Parque Industrial Daci,06785-300,,,Avenida Ibirama,1214,
São Paulo,Itápolis,,,Brazil,,,SANTA CASA DE MISERICORDIA ITAPOLIS,-21.5941264,-48.8053035,,ROOFTOP,,Centro,14900-000,,,Rua Antônio Compagno,411,
São Paulo,Piracaia,,,Brazil,,,SANTA CASA DE PIRACAIA,-23.0553578,-46.3569,,ROOFTOP,,Centro,12970-000,,,Avenida Doutor Cândido Rodrigues,120,
São Paulo,Suzano,,,Brazil,,,SANTA CASA DE SUZANO,-23.5524383,-46.3073924,,ROOFTOP,,Vila Figueira,08676-000,,,Avenida Antônio Marques Figueira,1861,
São Paulo,Taquarituba,,,Brazil,,,SANTA CASA DE TAQUARITUBA,-23.5394091,-49.2453762,,ROOFTOP,,Centro,18740-000,,,Rua Marechal Floriano Peixoto,95,
São Paulo,Jales,,,Brazil,,,SANTA CASA DE MISERICORDIA DE JALES,-20.2708698,-50.5526291,,ROOFTOP,,Centro,15700-082,,,Avenida João Amadeu,2049,
São Paulo,Pirangi,,,Brazil,,,HOSPITAL BENEFICENTE JOSE PIRONDI DE PIRANGI,-21.0970778,-48.6705788,,ROOFTOP,,Centro,15820-000,,,Av. Carmem Lúcia Giglio Girade,1901,
São Paulo,Louveira,,,Brazil,,,SANTA CASA DE LOUVEIRA,-23.0925956,-46.95175649999999,,ROOFTOP,,Jardim Vera Cruz,13290-000,,,Avenida Arthur de Souza Sygel,500,
São Paulo,Porto Feliz,,,Brazil,,,SANTA CASA DE PORTO FELIZ,-23.2039775,-47.52501849999999,,ROOFTOP,,Centro,18540-000,,,Rua Olavo Assumpção Fleury,101,
São Paulo,Urânia,,,Brazil,,,SANTA CASA DE URANIA,-20.2525471,-50.6428814,,ROOFTOP,,Nossa Senhora de Fátima,15760-000,,,Rua da Glória,218,
São Paulo,Laranjal Paulista,,,Brazil,,,SANTA CASA DE LARANJAL PAULISTA,-23.0555577,-47.8327396,,ROOFTOP,,Centro,18500-000,,,Rua Gov.Pedro de Toledo,633,
São Paulo,Diadema,,,Brazil,,,HOSPITAL MUNICIPAL DE DIADEMA HMD,-23.691791,-46.5870133,,ROOFTOP,,Piraporinha,09951-310,,,Avenida Piraporinha,1682,
São Paulo,São Joaquim da Barra,,,Brazil,,,SANTA CASA DE SAO JOAQUIM DA BARRA,-20.5870387,-47.861917,,ROOFTOP,,Centro,14600-000,,,Rua Piratininga,1221,
State of São Paulo,Santa Albertina,,,Brazil,,,HOSPITAL SANTA TEREZA SANTA ALBERTINA,-20.0331759,-50.7279229,,APPROXIMATE,,,15750-000,,,,,
São Paulo,Ferraz de Vasconcelos,,,Brazil,,,HOSPITAL DR OSIRIS FLORINDO COELHO FERRAZ DE VASCONCELOS,-23.5383066,-46.3585119,,ROOFTOP,,Vila Correa,,,,Rua Princesa Isabel,270,
São Paulo,Tietê,,,Brazil,,,SANTA CASA DE MISERICORDIA DE TIETE,-23.106657,-47.7133799,,ROOFTOP,,Centro,18530-000,,,Rua Tenente Gelás,1035,
São Paulo,José Bonifácio,,,Brazil,,,SANTA CASA DE JOSE BONIFACIO,-21.0556869,-49.6937303,,ROOFTOP,,Bela Vista,15200-000,,,Rua Quinze de Novembro,s/n,
São Paulo,Populina,,,Brazil,,,SANTA CASA DE POPULINA,-19.9428106,-50.5335283,,ROOFTOP,,Centro,15670-000,,,Rua Treze de Maio,1099,
São Paulo,Franca,,,Brazil,,,HOSPITAL PSIQUIATRICO ALLAN KARDEC FRANCA SP,-20.5263109,-47.3957711,,ROOFTOP,,Cidade Nova,14401-080,,,Rua José Marquês García,675,
São Paulo,São Paulo,,,Brazil,,,INST DO CANCER ARNALDO VIEIRA DE CARVALHO,-23.5426544,-46.6505451,,ROOFTOP,,Vila Buarque,01221-020,,,Rua Doutor Cesário Mota Júnior,112,
São Paulo,Ariranha,,,Brazil,,,HOSPITAL JULIA RUETE ARIRANHA,-21.1888258,-48.7849234,,ROOFTOP,,Centro,15960-000,,,Rua Siqueira Campos,29,
São Paulo,Itu,,,Brazil,,,HOSPITAL DR FRANCISCO RIBEIRO ARANTES ITU,-23.3819413,-47.3373594,,ROOFTOP,,Pirapitingui,13308-905,,,Rodovia Waldomiro Corrêa de Camargo,Km 63,
São Paulo,Caconde,,,Brazil,,,SANTA CASA DE CACONDE,-21.532629,-46.6445133,,ROOFTOP,,Centro,13770-000,,,Rua Padre Ângelis,número 39,
,,,,,,,EMED HOSPITAL E MATERNIDADE,,,,,,,,,,,,
São Paulo,Santo André,,,Brazil,,,HOSPITAL ESTADUAL MARIO COVAS DE SANTO ANDRE,-23.6707824,-46.5327805,,ROOFTOP,,Paraíso,09190-615,,,Rua Doutor Henrique Calderazzo,321,
São Paulo,Herculândia,,,Brazil,,,HOSPITAL SAO JOSE DE HERCULANDIA,-22.0057466,-50.3878206,,ROOFTOP,,,17650-000,,,Rua Dom Pedro II,162,
São Paulo,Guarulhos,,,Brazil,,,HOSPITAL GERAL DE GUARULHOS PROF DR WALDEMAR DE CARVALHO,-23.4496563,-46.4951351,,ROOFTOP,,Parque Cecap,07190-012,,,Alameda dos Lírios,300,
São Paulo,São Paulo,,,Brazil,,,HOSP MUN DR CARMINO CARICCHIO,-23.533184,-46.5667126,,ROOFTOP,,Tatuapé,03063-000,,,Avenida Celso Garcia,4815,
,,,,,,,HOSPITAL SANTO ANTONIO SANTOS,,,,,,,,,,,,
São Paulo,Indiaporã,,,Brazil,,,CASA DE SAUDE DE INDIAPORA,-19.9792048,-50.2851088,,ROOFTOP,,Centro,15690-000,,,Rua Coleta Macedo de Oliveira,1000,
São Paulo,Pirajuí,,,Brazil,,,SANTA CASA DE PIRAJUI,-21.9975197,-49.458388,,ROOFTOP,,Centro,16600-000,,,Avenida Rui Barbosa Lima,746,
São Paulo,Ribeirão Preto,,,Brazil,,,HOSPITAL IMACULADA CONCEICAO RIBEIRAO PRETO,-21.1825854,-47.8156253,,ROOFTOP,,Centro,14010-090,,,Rua Tibiriçá,1172,
São Paulo,Guarulhos,,,Brazil,,,HOSPITAL MUNICIPAL DA CRIANCA E DO ADOLESCENTE HMCA,-23.466868,-46.5322317,,ROOFTOP,,Centro,07011-060,,,Rua José Maurício,191,
São Paulo,São Manuel,,,Brazil,,,HOSPITAL DA CASA PIA SAO VICENTE DE PAULA,-22.7333215,-48.5709987,,ROOFTOP,,Centro,18650-000,,,Avenida Irmãs Cintra,468,
São Paulo,Ipuã,,,Brazil,,,SANTA CASA DE IPUA,-20.436874,-48.0114987,,ROOFTOP,,Centro,14610-000,,,Rua Ferdinando Fratim,335,
São Paulo,Pedregulho,,,Brazil,,,SANTA CASA DE MISERICORDIA DE PEDREGULHO,-20.258492,-47.4768131,,ROOFTOP,,,14470-000,,,Rua Tenente Salviano,125,
São Paulo,Americana,,,Brazil,,,HOSPITAL INFANTIL ANDRE LUIZ,-22.7087211,-47.3682179,,GEOMETRIC_CENTER,,Jardim da paz,,,,,,
São Paulo,Álvares Machado,,,Brazil,,,SANTA CASA DE ALVARES MACHADO,-22.0799813,-51.4754942,,ROOFTOP,,CENTRO,19160-000,,,Rua Monsenhor Nakamura,S/N,
São Paulo,Regente Feijó,,,Brazil,,,HOSPITAL E MATERNIDADE REGIONAL REGENTE FEIJO,-22.2185298,-51.3045058,,ROOFTOP,,,19570-000,,,Rua Brigadeiro Tobias,300,
São Paulo,Presidente Prudente,,,Brazil,,,SANTA CASA HOSP DR ARISTOTELES OLIVEIRA MARTINS PRES PRUDENT,-22.1294233,-51.3925784,,ROOFTOP,,Vila Euclides,19014-030,,,Rua Wenceslau Braz,5,
São Paulo,Aguaí,,,Brazil,,,SANTA CASA DE AGUAI,-22.0632354,-46.9763862,,ROOFTOP,,Vila Bom Gosto,13860-000,,,Rua Alexandrino de Alençar,37,
Kansas,Miami County,Marysville,,United States,,,HOSPITAL BP,38.6648144,-94.8553619,Hillsdale,ROOFTOP,,,66036,,,Old Kc Road,25500,
São Paulo,São Paulo,,,Brazil,,,HOSP MUN TIDE SETUBAL,-23.4971001,-46.4400249,,ROOFTOP,,Vila Doutor Eiras,08010-220,,,Rua Doutor José Guilherme Eiras,123,
São Paulo,Torrinha,,,Brazil,,,HOSPITAL PADRE NICANOR MERINO TORRINHA,-22.423912,-48.1697863,,ROOFTOP,,Centro,17360-000,,,Rua Ângelo Bortolai,126,
São Paulo,Pompéia,,,Brazil,,,SANTA CASA POMPEIA,-22.1009815,-50.17715150000001,,ROOFTOP,,Slandria,17580-000,,,Rua Luís Selani Neto,345,
São Paulo,Jardinópolis,,,Brazil,,,HOSPITAL SANTA CASA DE JARDINOPOLIS,-21.0296854,-47.77874509999999,,ROOFTOP,,Vila das Mangueiras,14680-000,,,Rua Antônio Elias Said,nº 100,
São Paulo,Tupã,,,Brazil,,,INSTITUTO DE PSIQUIATRIA TUPA,-21.9261041,-50.52835779999999,,ROOFTOP,,Jardim Nossa Senhora de Fatima,17605-244,,,Rua São João,310,
São Paulo,Tupã,,,Brazil,,,SANTA CASA DE TUPA,-21.9238509,-50.5176852,,ROOFTOP,,Vila Frias,17601-901,,,Rua Manoel Ferreira Damião,426,
São Paulo,Tupã,,,Brazil,,,HOSPITAL SAO FRANCISCO TUPA,-21.9362517,-50.5134506,,ROOFTOP,,Centro,17600-010,,,Rua Coroados,776,
São Paulo,Mogi das Cruzes,,,Brazil,,,HOSPITAL DAS CLINICAS LUZIA DE PINHO MELO MOGI DAS CRUZES,-23.510614,-46.194708,,ROOFTOP,,Vila Mogilar,08773-130,,,Rua Manuel de Oliveira,S/N,
São Paulo,São Vicente,,,Brazil,,,HOSPITAL SAO JOSE SAO VICENTE,-23.96522,-46.3866457,,ROOFTOP,,Centro,11310-061,,,Rua Frei Gaspar,790,
São Paulo,Gália,,,Brazil,,,HOSPITAL SAO VICENTE DE GALIA,-22.2902883,-49.55091609999999,,ROOFTOP,,,17450-000,,,Rua Décio Silvério,321,
São Paulo,Santa Cruz das Palmeiras,,,Brazil,,,SANTA CASA DE SANTA CRUZ DAS PALMEIRAS,-21.824901,-47.2504323,,ROOFTOP,,Centro,13650-000,,,Rua Monteiro de Barros,179,
São Paulo,São Paulo,,,Brazil,,,HOSP MUN DOUTOR ALEXANDRE ZAIO,-23.5430315,-46.5021074,,ROOFTOP,,Vila Nhocuné,03558,,,Rua Alves Maldonado,128,
Baja California,,,,Mexico,,,HOSP SAMARITANO,32.6374904,-115.4973762,Mexicali,ROOFTOP,,Guajardo,21080,,,Avenida Navolato,1299,
São Paulo,Itajobi,,,Brazil,,,HOSPITAL SAO JOSE DE ITAJOBI,-21.3183911,-49.0559248,,ROOFTOP,,,15840-000,,,Rua Rio Branco,251,
São Paulo,Cândido Mota,,,Brazil,Pq. Lorival,,SANTA CASA DE MISERICORDIA DE CANDIDO MOTA,-22.7428316,-50.3839888,,ROOFTOP,,,19880-000,,,Rua José Laurindo de Almeida,12,
São Paulo,Paulo de Faria,,,Brazil,,,SANTA CASA DE PAULO DE FARIA,-20.0298265,-49.4016337,,ROOFTOP,,Centro,15490-000,,,Rua Zenha Ribeiro,958,
São Paulo,Pacaembu,,,Brazil,,,SANTA CASA PACAEMBU,-21.5640714,-51.25203639999999,,GEOMETRIC_CENTER,,Monte Líbano,17860-000,,,,,
State of Goiás,Padre Bernardo,,,Brazil,,,HOSPITAL BENEFICENTE PADRE BERNARDO BRAAKIUS,-15.1609381,-48.2837403,Padre Bernardo,APPROXIMATE,,,73700-000,,,,,
Paraná,Curitiba,,,Brazil,,,HOSPITAL SAO VICENTE,-25.4350682,-49.2801696,,ROOFTOP,,Centro,80420-010,,,Avenida Vicente Machado,401,
São Paulo,São Carlos,,,Brazil,,,SANTA CASA DE SAO CARLOS,-22.0119659,-47.90111479999999,,ROOFTOP,,Jardim Pureza,13561-060,,,Rua Paulino Botelho de Abreu Sampaio,535,
São Paulo,Palmital,,,Brazil,,,SANTA CASA DE MISERICORDIA DE PALMITAL,-22.7914963,-50.2177119,,ROOFTOP,,Paraná,19970-000,,,Alameda da Paz,80,
São Paulo,Estrela D'Oeste,,,Brazil,,,SANTA CASA DE ESTRELA DOESTE,-20.2883924,-50.3969518,,ROOFTOP,,,15650-000,,,Avenida São Paulo,1207,
São Paulo,Clementina,,,Brazil,,,HOSPITAL DE CLEMENTINA,-21.5568712,-50.4473655,,ROOFTOP,,Centro,16250-000,,,Rua Enzo Bruno Carramaschi,01,
São Paulo,Marília,,,Brazil,,,HOSPITAL ESPIRITA DE MARILIA,-22.209902,-49.958091,,ROOFTOP,,Alto Cafezal,17504-072,,,Rua Doutor Joaquim de Abreu Sampaio Vidal,470,
São Paulo,Paulínia,,,Brazil,,,HOSPITAL MUNICIPAL DE PAULINIA,-22.7699925,-47.149541,,ROOFTOP,,Nova Paulínia,13140-000,,,Rua Miguel Vicente Cury,100,
São Paulo,Assis,,,Brazil,,,SANTA CASA DE ASSIS,-22.6602689,-50.409098,,ROOFTOP,,Centro,19814-015,,,Praça Doutor Symphronio Alves dos Santos,166,
São Paulo,Itapira,,,Brazil,,,HOSPITAL MUNICIPAL DE ITAPIRA,-22.4317804,-46.82686820000001,,ROOFTOP,,São Benedito,13976-010,,,Rua Reverendo Alfredo Guimarães,111,
São Paulo,Valparaíso,,,Brazil,,,SANTA CASA DE VALPARAISO,-21.2307721,-50.8618122,,ROOFTOP,,,16880-000,,,Rua Bartolomeu Bueno,241,
São Paulo,Rio Claro,,,Brazil,,,HOSPITAL SANTA FILOMENA DE RIO CLARO,-22.4096047,-47.5615433,,ROOFTOP,,Centro,13500-410,,,Avenida Dois,345,
São Paulo,Marília,,,Brazil,,,HOSPITAL UNIVERSITARIO I DE MARILIA,-22.2381509,-49.9665431,,ROOFTOP,,Jardim Sao Gabriel,17525-160,,,Rua Doutor Próspero Cecílio Coimbra,80,
São Paulo,Ribeirão Preto,,,Brazil,,,HOSPITAL SANTA LYDIA RIBEIRAO PRETO,-21.1703425,-47.80287500000001,,ROOFTOP,,Campos Elísios,14085-070,,,Rua Tamandaré,434,
Rondônia,Espigão D'Oeste,,,Brazil,,,HOSPITAL E MATERNIDADE SAO LUCAS,-11.528721,-61.0174639,,ROOFTOP,,Centro,76974-000,,,Rua da Matriz,104-200,
São Paulo,Parapuã,,,Brazil,,,SANTA CASA DE PARAPUA,-21.7847351,-50.7919263,,ROOFTOP,,Centro,17730-000,,,Rua Fortaleza,725,
São Paulo,Rinópolis,,,Brazil,,,HOSPITAL SAO PAULO DE RINOPOLIS,-21.7297629,-50.7264948,,GEOMETRIC_CENTER,,,17740-000,,,Rua Francisco L Munhoz,,
São Paulo,Sud Mennucci,,,Brazil,,,SANTA CASA DE SUD MENNUCCI,-20.6876922,-50.92425480000001,,ROOFTOP,,CENTRO,15360-000,,,Rua Maurício Alves de Lima,522,
São Paulo,Araras,,,Brazil,,,HOSPITAL SAO LUIZ DE ARARAS,-22.3577875,-47.3799921,,ROOFTOP,,Centro,13600-690,,,Rua Doutor Armando Sales de Oliveira,110,
São Paulo,São Paulo,,,Brazil,,,HOSPITAL SAO LUIZ,-23.5909464,-46.7037206,,ROOFTOP,,Jardim Guedala,05605-050,,,Rua Engenheiro Oscar Americano,840,
São Paulo,Cajobi,,,Brazil,,,HOSPITAL JOAO DEPIERI DE CAJOBI,-20.8740022,-48.8093733,,ROOFTOP,,,15410-000,,,Rua Adélio Rosa,375,
Colorado,Rio Grande County,,,United States,,,HOSPITAL VALE DO RIO GRANDE,37.674237,-106.3642497,Del Norte,ROOFTOP,,,81132,,,County Road 14,310,
São Paulo,Tremembé,,,Brazil,,,HOSPITAL BOM JESUS DE TREMEMBE,-22.959396,-45.550024,,ROOFTOP,,Centro,12120-000,,,Praça Padre Luiz Balmes,s/n,
Minas Gerais,São Lourenço,,,Brazil,,,HOSPITAL SAO LOURENCO,-22.120499,-45.04747589999999,,ROOFTOP,,Nossa de Fátima,37470-000,,,Rua Ida Mascarenhas Lage,310,
São Paulo,Piraju,,,Brazil,,,HOSPITAL DE PIRAJU,-23.196907,-49.381288,,ROOFTOP,,Centro,18800-000,,,Rua Sete de Setembro,818,
São Paulo,Votuporanga,,,Brazil,,,SANTA CASA DE VOTUPORANGA,-20.4264509,-49.9785552,,ROOFTOP,,Cidade Nova,15500-003,,,Rua Minas Gerais,3051,
São Paulo,Tupi Paulista,,,Brazil,,,SANTA CASA DE TUPI PAULISTA,-21.3934359,-51.5743979,,ROOFTOP,,Centro,17930-000,,,Rua Almirante Barroso,1436,
São Paulo,Serra Negra,,,Brazil,,,HOSPITAL SANTA ROSA DE LIMA DE SERRA NEGRA,-22.6084843,-46.70574269999999,,ROOFTOP,,Centro,13930-000,,,Avenida Santos Pinto,351,
São Paulo,Jarinu,,,Brazil,,,UNIDADE MISTA DE SAUDE DE JARINU MONSENHOR JACOB CONTI,-23.1103438,-46.72515689999999,,ROOFTOP,,Fim do Campo,13240-000,,,Avenida Ernesto de Moraes,655,
São Paulo,Lucélia,,,Brazil,,,SANTA CASA DE LUCELIA,-21.728063,-51.0101442,,ROOFTOP,,Centro,17780-000,,,Rua Manoel Lopes,410,
São Paulo,Limeira,,,Brazil,,,SANTA CASA DE LIMEIRA,-22.5793093,-47.4003746,,ROOFTOP,,Vila Claudia,13480-470,,,Avenida Antonio Ometto,675,
São Paulo,Jaci,,,Brazil,,,HOSPITAL NOSSA SENHORA DA DIVINA PROVIDENCIA,-20.8828436,-49.5677864,,ROOFTOP,,Centro,15155-000,,,Rua Maria Joana do Amaral Mendonça,950,
São Paulo,Sorocaba,,,Brazil,,,HOSPITAL MENTAL SOROCABA,-23.5042508,-47.462758,,ROOFTOP,,Centro,18035-190,,,Rua Sarutaia,171,
São Paulo,Campinas,,,Brazil,,,BOLDRINI CAMPINAS,-22.8084095,-47.0644605,,ROOFTOP,,Cidade Universitária,13083-210,,,Rua Doutor Gabriel Porto,1270,
São Paulo,Campinas,,,Brazil,,,HOSPITAL MUNICIPAL DR MARIO GATTI CAMPINAS,-22.9161093,-47.0685528,,ROOFTOP,,Parque Italia,13036-902,,,Avenida Prefeito Faria Lima,340,
,,,,,,,HOSPITAL DIA E UNIDADE DE INFECTOLOGIA WILLIAN ROCHA,,,,,,,,,,,,
São Paulo,Guaratinguetá,,,Brazil,,,SANTA CASA DE MISERICORDIA DE GUARATINGUETA,-22.8215027,-45.1916064,,ROOFTOP,,Centro,12501-090,,,Rua Rangel Pestana,194,
São Paulo,Guaraçaí,,,Brazil,,,HOSPITAL E MATERNIDADE DE GUARACAI,-21.0340181,-51.2061979,,ROOFTOP,,,16980-000,,,Rua Benedito Ben Hur Louzada,1210,
São Paulo,Salto de Pirapora,,,Brazil,,,HOSPITAL PSIQUIATRICO SANTA CRUZ SALTO DE PIRAPORA,-23.597722,-47.53734240000001,,ROOFTOP,,,18160-000,,,"Rodoviária João Leme Santos, Km 113",S/n,
São Paulo,Itararé,,,Brazil,,,SANTA CASA DE MISERICORDIA DE ITARARE,-24.1162726,-49.34562890000001,,ROOFTOP,,CENTRO,18460-000,,,Rua São Pedro,30,
São Paulo,Espírito Santo do Pinhal,,,Brazil,,,CLINICA DE REPOUSO SANTA ROSA ESPIRITO SANTO DO PINHAL,-22.1957949,-46.7628158,,ROOFTOP,,Jardim Pedro Corsi,13990-000,,,Rua José Antônio Fernandes,290,
São Paulo,Riolândia,,,Brazil,,,SANTA CASA DE RIOLANDIA,-19.981917,-49.6775847,,GEOMETRIC_CENTER,,,15495-000,,,,,
Minas Gerais,Belo Horizonte,,,Brazil,,,SANTA CASA DE MISERICORDIA SAO LUCAS,-19.9247154,-43.92557009999999,,ROOFTOP,,Santa Efigênia,30150-221,,,Avenida Francisco Sales,1111,
São Paulo,Guaratinguetá,,,Brazil,,,HOSPITAL FREI GALVAO,-22.8151522,-45.1846118,,ROOFTOP,,Vila Santa Rita,12502-380,,,Rua Domingos Leme,77,
São Paulo,General Salgado,,,Brazil,,,SANTA CASA DE GENERAL SALGADO,-20.6477039,-50.3583426,,ROOFTOP,,Jardim Prima,15300-000,,,Rua Nadir García,555,
São Paulo,Ipaussu,,,Brazil,,,SANTA CASA DE IPAUCU,-23.052204,-49.62409,,ROOFTOP,,Centro,18950-000,,,Rua Rui Barbosa,451,
São Paulo,Sorocaba,,,Brazil,,,CONJUNTO HOSPITALAR SOROCABA,-23.5093571,-47.4581972,,ROOFTOP,,LAGEADO,18030-005,,,Avenida Comendador Pereira Inácio,564,
São Paulo,Descalvado,,,Brazil,,,SANTA CASA DESCALVADO,-21.9069916,-47.61621350000001,,ROOFTOP,,Centro,13690-000,,,Pc Dr Otávio Gabrielli,827,
São Paulo,Lins,,,Brazil,,,CAIS CLEMENTE FERREIRA DE LINS,-21.6366247,-49.7737651,,ROOFTOP,,Zona Rural,16430-000,,,Estrada lins guaiçara Km 4,s/n,
Texas,Collin County,,,United States,,,SEARA HOSPITAL PSIQUIATRICO,33.1506607,-96.8374072,Frisco,ROOFTOP,,,75034,3308,,Frisco Square Boulevard,5680,3000
São Paulo,Auriflama,,,Brazil,,,SANTA CASA DE AURIFLAMA,-20.6853222,-50.5548791,,ROOFTOP,,Centro,15350-000,,,R. Alfredo Dainese,59,
São Paulo,Brotas,,,Brazil,,,HOSPITAL SANTA THEREZINHA BROTAS,-22.2863545,-48.12215279999999,,ROOFTOP,,Centro,17380-000,,,Avenida Rui Barbosa,703,
São Paulo,Macaubal,,,Brazil,,,SANTA CASA DE MACAUBAL,-20.8078978,-49.9632893,,ROOFTOP,,Centro,15270-000,,,Rua Sete de Setembro,1203,
São Paulo,Alto Alegre,,,Brazil,,,HOSPITAL PADRE JOAO W BRAEM,-21.581084,-50.1637968,,ROOFTOP,,CENTRO,16310-000,,,Avenida Doutor Acir Alves Leite,185,
São Paulo,Guararapes,,,Brazil,,,SANTA CASA DE GUARARAPES,-21.251167,-50.6492927,,ROOFTOP,,CENTRO,16700-000,,,Avenida Marechal Floriano,1602,
São Paulo,Iguape,,,Brazil,,,UNIDADE MISTA DE IGUAPE,-24.7115956,-47.5596655,,GEOMETRIC_CENTER,,,11920-000,,,Rua dos Estudantes,,
São Paulo,Rancharia,,,Brazil,,,HOSPITAL E MATERNIDADE DE RANCHARIA,-22.2334141,-50.8962548,,ROOFTOP,,Vila Regina,19600-000,,,Rua Mario César de Camargo,1559,
São Paulo,Vargem Grande do Sul,,,Brazil,,,HOSPITAL DE CARIDADE DE VARGEM GRANDE DO SUL,-21.8381718,-46.8991112,,ROOFTOP,,Centro,13880-000,,,Praça Nossa Senhora Aparecida,61,
São Paulo,Campinas,,,Brazil,,,CASA DE SAUDE CAMPINAS,-22.9082074,-47.0548239,,ROOFTOP,,Centro,13015-240,,,Praça Doutor Tófoli,28,
São Paulo,São Paulo,,,Brazil,,,HOSP MUN DR ARTHUR RIBEIRO DE SABOYA,-23.6533687,-46.6456814,,ROOFTOP,,Jabaquara,04330-020,,,Avenida Francisco de Paula Quintanilha Ribeiro,860,
São Paulo,Borborema,,,Brazil,,,HOSPITAL SAO SEBASTIAO DE BORBOREMA,-21.6163889,-49.06883130000001,,ROOFTOP,,Jardim Primavera,14955-000,,,Rua Pedro José Passos,400,
São Paulo,Cardoso,,,Brazil,,,SANTA CASA DE CARDOSO,-20.0804982,-49.9187842,,ROOFTOP,,,15570-000,,,Rua Emílio Fernandes Bilar,1650,
São Paulo,Apiaí,,,Brazil,,,HOSPITAL DR ADHEMAR DE BARROS APIAI,-24.5153468,-48.8428868,,ROOFTOP,,Centro,18320-000,,,Rua Primeiro de Maio,336,
São Paulo,Campinas,,,Brazil,,,HOSPITAL E MATERNIDADE CELSO PIERRO,-22.9206194,-47.1200381,,ROOFTOP,,Jardim Londres,13034-685,,,Avenida John Boyd Dunlop,S/N,
São Paulo,Birigui,,,Brazil,,,HOSPITAL FELICIO LUCHINI BIRIGUI,-21.2849621,-50.3352572,,GEOMETRIC_CENTER,,Vila Silvares,16201-006,,,Rua Braz Sanches Arriaga,,
São Paulo,Americana,,,Brazil,,,HOSPITAL SAO FRANCISCO DE AMERICANA,-22.7466938,-47.3294751,,ROOFTOP,,Vila Galo,13466-319,,,Praça Francisco Matarazzo,60,
,,,,Brazil,,,HOSPITAL DAS CLINICAS FAEPA RIBEIRAO PRETO,-21.1628095,-47.8514871,,ROOFTOP,,Vila Monte Alegre,14048-900,,,Avenida dos Bandeirantes,3900,
São Paulo,Amparo,,,Brazil,,,BENEFICENCIA PORTUGUESA DE AMPARO,-22.7068503,-46.7708006,,ROOFTOP,,Centro,13900-400,,,Avenida Bernardino de Campos,207,
São Paulo,Barueri,,,Brazil,,,PS E MATERNIDADE NAIR FONSECA LEITAO ARANTES,-23.5110963,-46.8722104,,ROOFTOP,,Centro,06401-120,,,Rua Professor João da Mata e Luz,262,
São Paulo,São Paulo,,,Brazil,,,HOSPITAL KATIA DE SOUZA RODRIGUES TAIPASSP SAO PAULO,-23.4441691,-46.7179616,,ROOFTOP,,Parada De Taipas,02810-000,,,Avenida Elísio Teixeira Leite,6999,
São Paulo,Amparo,,,Brazil,,,SANATORIO ISMAEL,-22.6978129,-46.7698815,,ROOFTOP,,São Judas,13901-290,,,Rua Santo Bruschini,152,
São Paulo,Guarulhos,,,Brazil,,,CASAS ANDRE LUIZ GUARULHOS,-23.4376158,-46.5449446,,ROOFTOP,,Picanço,07082-050,,,Avenida André Luiz,723,
São Paulo,São Sebastião da Grama,,,Brazil,,,SANTA CASA DE GRAMA,-21.7088286,-46.8250153,,ROOFTOP,,Centro,13790-000,,,Rua Nove de Julho,286,
São Paulo,São Bernardo do Campo,,,Brazil,,,HOSPITAL LACAN,-23.7111461,-46.5680491,,ROOFTOP,,Planalto,09810-000,,,Avenida José Odorizzi,620,
São Paulo,Casa Branca,,,Brazil,,,SANTA CASA DE CASA BRANCA,-21.776125,-47.08551600000001,,ROOFTOP,,Centro,13700-000,,,Praça Doutor Carvalho,204,
São Paulo,Porto Ferreira,,,Brazil,,,HOSPITAL DONA BALBINA,-21.8546954,-47.4815464,,ROOFTOP,,Centro,13660-000,,,Rua Doutor Carlindo Valeriani,337,
São Paulo,Mauá,,,Brazil,,,HOSPITAL DE CLINICAS DR RADAMES NARDINI,-23.6724151,-46.4504642,,ROOFTOP,,Vila Bocaina,09310-640,,,Rua Regente Feijó,166,
São Paulo,Bebedouro,,,Brazil,,,HOSPITAL MUNICIPAL DE BEBEDOURO JULIA PINTO CALDEIRA,-20.9346575,-48.4965572,,ROOFTOP,,Jardim Julia,14706-045,,,Avenida Raul Furquim,2010,
São Paulo,Poá,,,Brazil,,,HOSPITAL MUNICIPAL DR GUIDO GUIDA,-23.5153544,-46.3472162,,ROOFTOP,,Jardim Medina,08556-230,,,Rua Barão de Juparanã,43,
São Paulo,Chavantes,,,Brazil,,,SANTA CASA DE CHAVANTES,-23.0355262,-49.7112488,,ROOFTOP,,Centro,18970-000,,,Rua Maria Ferreira,22,
São Paulo,Adamantina,,,Brazil,,,CLINICA NOSSO LAR ADAMANTINA,-21.6787969,-51.0625684,,ROOFTOP,,Vila Jardim,17800-000,,,Rua Hermenegildo Lopes Pedroso,500,
São Paulo,Tupã,,,Brazil,,,CASA DA CRIANCA DE TUPA,-21.9414156,-50.5255585,,ROOFTOP,,Vila das Industrias,17604-310,,,Rua João José Sabongi,495,
São Paulo,Araras,,,Brazil,,,CLINICA SAYAO ARARAS,-22.3706003,-47.3927554,,ROOFTOP,,Jardim Belvedere,13601-200,,,Avenida Padre Alarico Zacarias,1253,
São Paulo,Bernardino de Campos,,,Brazil,,,SANTA CASA HOSPITAL JESUS MARIA JOSE,-23.0169102,-49.473707,,ROOFTOP,,,18960-000,,,Avenida Guilherme Arruda Castanho,469,
São Paulo,Paraguaçu Paulista,,,Brazil,,,SANTA CASA DE PARAGUACU PAULISTA,-22.4140878,-50.5791261,,ROOFTOP,,Centro,19700-000,,,Rua Caramuru,568,
São Paulo,Araraquara,,,Brazil,,,SANTA CASA DE ARARAQUARA,-21.7900312,-48.1797147,,ROOFTOP,,Centro,14801-150,,,Avenida José Bonifácio,794,
São Paulo,Ibirá,,,Brazil,,,SANTA CASA DE IBIRA,-21.0818622,-49.2378285,,ROOFTOP,,Centro,15860-000,,,Avenida José Bueno Cavalheiro,600,
São Paulo,Iacri,,,Brazil,,,SANTA CASA DE IACRI,-21.858567,-50.6882539,,ROOFTOP,,,17680-000,,,Rua Bandeirantes,1341,
São Paulo,Osvaldo Cruz,,,Brazil,,,SANTA CASA DE MISERICORDIA DE OSVALDO CRUZ,-21.8038174,-50.8769151,,ROOFTOP,,Vila Sao Luis,17700-000,,,Avenida Presidente Vargas,1,
São Paulo,São Caetano do Sul,,,Brazil,,,COMPLEXO HOSPITALAR MARCIA E MARIA BRAIDO,-23.6226236,-46.563381,,ROOFTOP,,Santa Paula,09540-430,,,Rua Luís Louza,48,
São Paulo,Sorocaba,,,Brazil,,,HOSPITAL PSIQUIATRICO VERA CRUZ SOROCABA,-23.4890986,-47.4462845,,ROOFTOP,,Jardim Santa Rosália,18095-340,,,Avenida Pereira da Silva,926,
São Paulo,São Paulo,,,Brazil,,,HOSP STA CRUZ,-23.5971438,-46.63301329999999,,ROOFTOP,,Vila Mariana,04122-000,,,Rua Santa Cruz,398,
São Paulo,Barra Bonita,,,Brazil,,,HOSPITAL E MATERNIDADE SAO JOSE BARRA BONITA,-22.4952173,-48.55582990000001,,ROOFTOP,,Centro,17340-000,,,Rua 14 de Dezembro,490,
São Paulo,Ibitinga,,,Brazil,,,SANTA CASA DE CARIDADE E MATERNIDADE IBITINGA,-21.7525849,-48.8277553,,ROOFTOP,,Centro,14940-000,,,Rua Domingos Robert,1090,
São Paulo,Nova Granada,,,Brazil,,,SANTA CASA DE NOVA GRANADA,-20.5381627,-49.3244528,,ROOFTOP,,Centro,15440-000,,,Avenida Doutor Hildeberto Albuquerque Ferreira,1271,
São Paulo,Monte Aprazível,,,Brazil,,,SANTA CASA DE MONTE APRAZIVEL,-20.771601,-49.708578,,ROOFTOP,,Centro,15150-000,,,Rua São João,729,
São Paulo,Araçatuba,,,Brazil,,,ASSOCIACAO DE AMPARO AO EXCEPCIONAL RITINHA PRATES,-21.1871948,-50.4606001,,ROOFTOP,,Paraíso,16075-050,,,Rua Wandenkolk,2606,
São Paulo,Araçatuba,,,Brazil,,,HOSPITAL BENEDITA FERNANDES ARACATUBA,-21.1949191,-50.4365554,,ROOFTOP,,Santana,16050-535,,,Rua Benedita Fernandes,445,
São Paulo,Andradina,,,Brazil,,,SANTA CASA DE ANDRADINA,-20.8939235,-51.3745728,,ROOFTOP,,Centro,16901-901,,,Avenida Guanabara,730,
São Paulo,São Roque,,,Brazil,,,HOSPITAL E MATERNIDADE SOTERO DE SOUZA,-23.537753,-47.1386715,,ROOFTOP,,Centro,18130-565,,,Rua Santa Isabel,186,
São Paulo,Angatuba,,,Brazil,,,HOSPITAL ANGATUBA,-23.4926586,-48.4149903,,GEOMETRIC_CENTER,,Centro,18240-000,,,,,
São Paulo,Salto Grande,,,Brazil,,,SANTA CASA DE SALTO GRANDE,-22.8869944,-49.9847283,,ROOFTOP,,,19920-000,,,Rua Olímpio Pímentel,2,
São Paulo,Cesário Lange,,,Brazil,,,BENEFICENCIA HOSPITALAR DE CESARIO LANGE,-23.2194828,-47.9457851,,ROOFTOP,,Distrito Industrial Urbano,18285-000,,,Avenida São Paulo,325,
São Paulo,Divinolândia,,,Brazil,,,CONDERG HOSPITAL REGIONAL DE DIVINOLANDIA,-21.6681788,-46.74253849999999,,ROOFTOP,,Centro,13780-000,,,Rua Leonor Mendes de Barros,626,
São Paulo,São Paulo,,,Brazil,,,HOSP MUN PROFESSOR DR ALIPIO CORREA NETTO,-23.4997442,-46.4728178,,ROOFTOP,,Vila Paranagua,03807,,,Alameda Rodrigo de Brum,1989,
São Paulo,Olímpia,,,Brazil,,,SANTA CASA DE OLIMPIA,-20.7360406,-48.9182727,,ROOFTOP,,Centro,15400-000,,,Rua Síria,139,
São Paulo,Batatais,,,Brazil,,,HOSPITAL MAJOR ANTONIO CANDIDO BATATAIS,-20.8886164,-47.5836801,,ROOFTOP,,Centro,14300-029,,,Rua Doutor Manoel Furtado,235,
,,,,,,,HOSP MUNICIPAL DE URGENCIAS HMU,,,,,,,,,,,,
São Paulo,Rio Claro,,,Brazil,,,SANTA CASA DE RIO CLARO,-22.4154269,-47.55683459999999,,ROOFTOP,,Centro,13500-330,,,Rua Dois,297,
State of São Paulo,Salto de Pirapora,,,Brazil,,,CLINICA PSIQUIATRICA SALTO DE PIRAPORA,-23.650065,-47.572307,,GEOMETRIC_CENTER,,Recanto Cidade Nova,18160-000,,,,,
São Paulo,Caraguatatuba,,,Brazil,,,CASA DE SAUDE STELLA MARIS,-23.6249859,-45.42301270000001,,ROOFTOP,,Centro,11660-650,,,Avenida Miguel Varlez,980,
São Paulo,Taguaí,,,Brazil,,,SANTA CASA DE MISERICORDIA DE TAGUAI,-23.4548808,-49.4075284,,ROOFTOP,,Vila dos Martins,18890-000,,,Rua João Carniato,90,
São Paulo,Macatuba,,,Brazil,,,SANTA CASA DE MACATUBA,-22.5043576,-48.7136457,,ROOFTOP,,CENTRO,17290-000,,,Rua Carlos Gomes,654,
São Paulo,Biritiba-Mirim,,,Brazil,,,PRONTO SOC HOSPMUNBIRITIBA MIRIM DRARTHUR ALBERTO NARDY,-23.5704516,-46.0409059,Biritiba-Mirim,APPROXIMATE,,,08940-000,,,,,
São Paulo,Mirandópolis,,,Brazil,,,HOSPITAL ESTADUAL DE MIRANDOPOLIS DR OSWALDO BRANDI FARIA,-21.125539,-51.1035341,,ROOFTOP,,Centro,16800-000,,,Avenida Doutor Raul da Cunha Bueno,585,
São Paulo,Pereira Barreto,,,Brazil,,,SANTA CASA DE MISERICORDIA DE PEREIRA BARRETO,-20.6531949,-51.11554719999999,,ROOFTOP,,Centro,15370-000,,,Rua Dermival Franceschi,505,
São Paulo,Aparecida,,,Brazil,,,SANTA CASA DE APARECIDA,-22.8405734,-45.2269256,,ROOFTOP,,Centro,12570-000,,,Rua Barão do Rio Branco,470,
São Paulo,Jaú,,,Brazil,,,HOSPITAL AMARAL CARVALHO JAU,-22.2914836,-48.5499753,,ROOFTOP,,Chácara Braz Miraglia,17210-070,,,Rua Doná Silvéria,150,
São Paulo,Assis,,,Brazil,,,HOSPITAL REGIONAL DE ASSIS,-22.6601936,-50.4101121,,ROOFTOP,,Centro,19800-000,,,Praça Doutor Symphronio Alves dos Santos,s/n,
São Paulo,Marília,,,Brazil,,,SANTA CASA DE MARILIA,-22.2127563,-49.9391129,,ROOFTOP,,Cascata,17515-900,,,Avenida Vicente Ferreira,828,
São Paulo,Santa Isabel,,,Brazil,,,SANTA CASA DE SANTA ISABEL,-23.31906,-46.2241931,,ROOFTOP,,Parque Sao Benedito,07500-000,,,Avenida Guilherme Alfieri,201-279,
São Paulo,Rio Claro,,,Brazil,,,BEZERRA DE MENEZES RIO CLARO,-22.4226198,-47.5634019,,ROOFTOP,,Estádio,13501-110,,,Avenida 25,1111,
São Paulo,Sorocaba,,,Brazil,,,HOSPITAL TEIXEIRA LIMA SOROCABA,-23.502558,-47.4271729,,ROOFTOP,,Vila Haro,18015-360,,,Rua Emílio Kerche de Menezes,258,
São Paulo,Piedade,,,Brazil,,,SANTA CASA PIEDADE,-23.7130712,-47.4192502,,ROOFTOP,,Centro,18170-000,,,Rua Quintino Bocaiuva,154,
State of São Paulo,Mairinque,,,Brazil,,,BENEFICENCIA HOSPITALAR DE MAIRINQUE MAIRINQUE,-23.5378893,-47.18567909999999,Mairinque,APPROXIMATE,,,,,,,,
São Paulo,Terra Roxa,,,Brazil,,,HOSPITAL TERRA ROXA,-20.7892474,-48.3313678,,ROOFTOP,,Centro,14745-000,,,Rua Fernando Costa,02,
São Paulo,Promissão,,,Brazil,,,CLINICA DE REPOUSO DOM BOSCO,-21.5347739,-49.8587315,,ROOFTOP,,Centro,16370-000,,,Rua Genaro Samarco,134,
São Paulo,Guapiara,,,Brazil,,,HOSPITAL MUNICIPAL JOAQUIM RAIMUNDO GOMES GUAPIARA,-24.1847334,-48.5289583,,ROOFTOP,,Centro,18310-000,,,Rua 21 de Abril,19,
São Paulo,Bertioga,,,Brazil,,,HOSPITAL MUNICIPAL DE BERTIOGA,-23.8429362,-46.1396987,,ROOFTOP,,Vila Itapanhaú,11250-000,,,Praça Vicente Molinari,S/n,
São Paulo,Pontal,,,Brazil,,,SANTA CASA DE PONTAL,-21.0282007,-48.0378549,,ROOFTOP,,Jardim Residencial,14180-000,,,Rua Ananias da Costa Freitas,691-705,
São Paulo,Avaré,,,Brazil,,,SANTA CASA DE AVARE,-23.1012046,-48.9285448,,ROOFTOP,,Centro,18700-110,,,Rua Paraíba,1003,
São Paulo,Francisco Morato,,,Brazil,,,SANTA CASA DE FRANCISCO MORATO,-23.2790521,-46.738895,,ROOFTOP,,Belem Capela,07990-050,,,Rua dos Cravos,Nº 230,
Bahia,Itabuna,,,Brazil,,,SANTA CASA DE GUARA,-14.7835852,-39.2744221,,ROOFTOP,,Castalia,45602-748,,,Rua Major Dórea,86,
São Paulo,Sumaré,,,Brazil,,,HOSPITAL ESTADUAL SUMARE,-22.8166533,-47.2415642,,ROOFTOP,,Jardim Bela Vista,13175-490,,,Avenida da Amizade,2400,
,,,,,,,UNIDADE MISTA DE SAUDE DR JOSE ORLANDO S BORGATTO,,,,,,,,,,,,
São Paulo,Nazaré Paulista,,,Brazil,,,HOSPITAL MUNICIPAL DE NAZARE PAULISTA,-23.1605291,-46.3947323,,ROOFTOP,,,12960-000,,,Ezau Avelino Pinheiro,100,
São Paulo,Santa Cruz do Rio Pardo,,,Brazil,,,SANTA CASA MISER STACRUZ RIO PARDO,-22.9014635,-49.6268776,,ROOFTOP,,Centro,18900-000,,,Avenida Doutor Ciro Melo Camarinha,530,
São Paulo,Tabapuã,,,Brazil,,,HOSP MARIA VALLE PEREIRA DE TABAPUA,-20.9658345,-49.0262275,,ROOFTOP,,CENTRO,15880-000,,,Rua Adinael Moreira,1683,
São Paulo,São Paulo,,,Brazil,,,HOSP MUN DR BENEDITO MONTENEGRO,-23.588119,-46.5143153,,ROOFTOP,,Jardim Iva,03921-080,,,Rua Antônio Lázaro,226,
,,,,,,,HOSPITAL DA REABILITACAO DO ABC,,,,,,,,,,,,
São Paulo,Diadema,,,Brazil,,,HOSPITAL ESTADUAL DE DIADEMA HOSPITAL SERRARIA,-23.7067207,-46.6091735,,ROOFTOP,,Vila Conceicao,09960-120,,,Rua José Bonifácio,1641,
São Paulo,Sertãozinho,,,Brazil,,,HOSPITAL E MATERNIDADE SAO JOSE SERTAOZINHO,-21.1349496,-47.9916098,,ROOFTOP,,Centro,14160-180,,,Rua Epitácio Pessoa,1741,
,,,,,,,CEDEME CENTRO DESENVOLV PORTADOR DEFICIENCIA MENTAL ITU,,,,,,,,,,,,
São Paulo,São João da Boa Vista,,,Brazil,,,SANTA CASA DE MISERICORDIA DONA CAROLINA MALHEIROS SJBV,-21.9819108,-46.79528639999999,,ROOFTOP,,Vila Conrado,13870-720,,,Rua Carolina Malheiros,92,
São Paulo,Mogi das Cruzes,,,Brazil,,,COMPLEXO HOSPITALAR DR ARNALDO PEZZUTI CAVALCANTI,-23.5836146,-46.24391989999999,,GEOMETRIC_CENTER,,Jundiapeba,08751-600,,,,,
Lombardia,Città Metropolitana di Milano,Milano,,Italy,,,IRPSI,45.4544747,9.20335,Milano,ROOFTOP,,,20122,,,Viale Emilio Caldara,20,
São Paulo,Campinas,,,Brazil,,,SOBRAPAR CAMPINAS,-22.8275448,-47.0682751,,ROOFTOP,,Jardim Santa Genebra,,,,Avenida Adolfo Lutz,100,
SP,Águas de Lindóia,,,Brazil,,,CLINICA CRISTALIA ITAPIRA,-22.472466,-46.6052792,,ROOFTOP,,Ponte Preta,13970-970,,,Rodovia Itapira-Lindóia (SP-147),Km 30.5,
São Paulo,Itapira,,,Brazil,,,SANTA CASA DE MISERICORDIA DE ITAPIRA,-22.4365415,-46.8266648,,ROOFTOP,,Santa Cruz,13974-347,,,Praça Coronel Souza Ferreira,32,
São Paulo,Votuporanga,,,Brazil,,,CASA DE SAUDE E MATER N S APARECIDA VOTUPORANGA,-20.4231379,-49.9714548,,ROOFTOP,,Parque Kennedy,15505-160,,,Rua Sergipe,3260,
São Paulo,Amparo,,,Brazil,,,CLINICA FAZENDA PALMEIRAS,-22.6962359,-46.7784236,,ROOFTOP,,Jardim Santo Antonio,13901-260,,,Avenida Alan Kardec,1100,
São Paulo,Espírito Santo do Pinhal,,,Brazil,,,INSTITUTO BEZERRA DE MENEZES ESPIRITO SANTO DO PINHAL,-22.1908695,-46.7424434,,ROOFTOP,,Centro,13990-000,,,Rua Doutor Abelardo V César,33,
São Paulo,Ribeirão Preto,,,Brazil,,,SANTA CASA DE RIBEIRAO PRETO,-21.1678607,-47.8060903,,ROOFTOP,,Campos Elísios,14085-000,,,Avenida Saudade,nº456,
São Paulo,São Pedro,,,Brazil,,,SANTA CASA DE SAO PEDRO,-22.5457928,-47.914507,,ROOFTOP,,Vila Nova,13520-000,,,Rua Malaquias Guerra,254,
São Paulo,Conchal,,,Brazil,,,HOSPITAL E MATERNIDADE MADRE VANNINI CONCHAL SP,-22.3380639,-47.1739128,,ROOFTOP,,Centro,13835-000,,,Rua Angélicas,730,
São Paulo,Sorocaba,,,Brazil,,,HOSPITAL JARDIM DAS ACACIAS SOROCABA,-23.4841105,-47.4424066,,ROOFTOP,,Jardim Santa Rosália,18090-000,,,Avenida Roberto Símonsen,987,
São Paulo,São Paulo,,,Brazil,,,HOSP MUN DR IGNACIO PROENCA DE GOUVEA,-23.5719621,-46.5902671,,ROOFTOP,,Parque da Mooca,03124-020,,,Rua Juventus,562,
São Paulo,Itapira,,,Brazil,,,INSTITUTO AMERICO BAIRRAL DE PSIQUIATRIA,-22.4431814,-46.820491,,ROOFTOP,,Vila Pereira,13970-450,,,Rua Doutor Hortêncio Pereira da Silva,313,
Minas Gerais,Belo Horizonte,,,Brazil,,,HOSPITAL SAO FRANCISCO DE ASSIS,-19.9027284,-43.9335562,,ROOFTOP,,Concórdia,31110-580,,,Rua Itamaracá,535,
São Paulo,São José dos Campos,,,Brazil,,,CVV FRANCISCA JULIA,-23.2543604,-45.8620254,,ROOFTOP,,Torrão de Ouro,12229,,,Estrada Doutor Bezerra de Menezes,700,
São Paulo,São José dos Campos,,,Brazil,,,HOSPITAL ARGIA PROVISAO,-23.2399077,-45.8834373,,ROOFTOP,,Bosque dos Eucaliptos,12233-000,,,Avenida Andrômeda,3061,
São Paulo,Caieiras,,,Brazil,,,UNIDADE MISTA DE SAUDE ROSA SANTA PASIN AGUIAR,-23.3667856,-46.75069,,ROOFTOP,,Região Central,07700-600,,,Rua Albert Hanser,80,
São Paulo,Marília,,,Brazil,,,MATERNIDADE GOTA DE LEITE,-22.2141721,-49.9471212,,ROOFTOP,,Palmital,17509-001,,,Avenida Nelson Spielmann,631,
,,,,,,,ANEXO PSIQUIATRICO IRMA VALENTINA,,,,,,,,,,,,
São Paulo,Itapecerica da Serra,,,Brazil,,,MATERNIDADE MUNICIPAL ZORAIDE EVA DAS DORES,-23.7108242,-46.8486123,,ROOFTOP,,Jardim Tereza Maria,06850-670,,,Rua Carlos Domingues Tantico,77,
São Paulo,Mairiporã,,,Brazil,,,HOSPITAL E MATERNIDADE MAIRIPORA,-23.3207617,-46.590189,,ROOFTOP,,Centro,07600-000,,,Rua Ipiranga,280,
São Paulo,Joanópolis,,,Brazil,,,SANTA CASA DE MISERICORDIA DE JOANOPOLIS,-22.9303638,-46.2728686,,ROOFTOP,,Centro,12980-000,,,Rua Francisco Wohlers,57,
São Paulo,Piracicaba,,,Brazil,,,HOSPITAL DOS FORNECEDORES DE CANA DE PIRACICABA,-22.7122423,-47.6579133,,ROOFTOP,,Vila Rezende,13405-233,,,Avenida Barão de Valença,716,
São Paulo,Limeira,,,Brazil,,,SOCIEDADE OPERARIA HUMANITARIA LIMEIRA,-22.5593846,-47.4199908,,ROOFTOP,,Jardim Nova Italia,13484-400,,,Avenida Doná Antônia Valverde Cruãnes,70,
São Paulo,Lorena,,,Brazil,,,IRMANDADE DA SANTA CASA DE MISERICORDIA LORENA,-22.734403,-45.120102,,ROOFTOP,,Centro,12600-100,,,Rua Dom Bôsco,562,
São Paulo,Campo Limpo Paulista,,,Brazil,,,HOSPITAL DE CLINICAS CAMPO LIMPO PAULISTA,-23.2091054,-46.7725541,,ROOFTOP,,Jardim Europa,13232-020,,,Avenida Alfried Krupp,1200,
São Paulo,Peruíbe,,,Brazil,,,UNIDADE HOSPITALAR DE PERUIBE,-24.3205088,-46.99731329999999,,ROOFTOP,,Centro,11750-000,,,Rua Professora Rosa Emília Neves Costa,130,
São Paulo,Votorantim,,,Brazil,,,HOSPITAL MUNICIPAL DE VOTORANTIM,-23.5446067,-47.4497292,,ROOFTOP,,Centro,18110-020,,,Rua João Valter,181,
São Paulo,Bananal,,,Brazil,,,UNIDADE MISTA DE SAUDE MONS CID FRANCA SANTOS,-22.6812937,-44.3198461,,ROOFTOP,,Centro,12850-000,,,Avenida Bom Jesus,134,
São Paulo,Hortolândia,,,Brazil,,,HOSPITAL E MATERNIDADE MUNICIPAL GOVERNADOR MARIO COVAS,-22.8852046,-47.195133,,ROOFTOP,,Jardim Mirante de Sumare,13187,,Hospital e Maternidade Municipal Governador Mario Covas,,,
São Paulo,Itanhaém,,,Brazil,,,HOSPITAL REGIONAL JORGE ROSSMANN DE ITANHAEM,-24.1807027,-46.7836782,,ROOFTOP,,Centro,11740-000,,,Avenida Rui Barbosa,541,
São Paulo,Mogi Mirim,,,Brazil,,,IRMANDADE DA STA CASA DE MISERICORD DE MOGI MIRIM MOGI MIRIM,-22.4378487,-46.9594044,,ROOFTOP,,Centro,13800-200,,,Rua Maestro Azevedo,124,
São Paulo,Novo Horizonte,,,Brazil,,,SANTA CASA DE NOVO HORIZONTE,-21.4661759,-49.2267674,,ROOFTOP,,centro,14960-000,,,Rua Vinte e Oito de Outubro,1202,
São Paulo,São Paulo,,,Brazil,,,INSTITUTO DANTE PAZZANESE DE CARDIOLOGIA IDPC SAO PAULO,-23.5848389,-46.6517907,,ROOFTOP,,Vila Mariana,04012-909,,,Avenida Doutor Dante Pazzanese,500,
São Paulo,São Paulo,,,Brazil,,,HOSPITAL INFANTIL CANDIDO FONTOURA SAO PAULO,-23.5519615,-46.5851953,,ROOFTOP,,Belenzinho,03173-010,,,Rua Siqueira Bueno,1757,
São Paulo,Miguelópolis,,,Brazil,,,SANTA CASA DE MIGUELOPOLIS,-20.1834394,-48.0285965,,GEOMETRIC_CENTER,,,14530-000,,,Rua José Jacobe Daur,,
,,,,,,,HOSP DE TRANSPLANT DO EST DE SP EURYCLIDES DE JESUS ZERBINI,,,,,,,,,,,,
Madeira,,,,Portugal,,,CASA DE SAUDE DE SAO JOAO DE DEUS,32.6766211,-16.9463826,Funchal,GEOMETRIC_CENTER,,,9020-126,,,Caminho do Trapiche,,
São Paulo,Catanduva,,,Brazil,,,HOSPITAL PADRE ALBINO CATANDUVA,-21.1411843,-48.9760752,,ROOFTOP,,Centro,15800-280,,,Rua Belém,519,
São Paulo,Catanduva,,,Brazil,,,HOSP ESCOLA EMILIO CARLOS CATANDUVA,-21.1493794,-48.9587018,,ROOFTOP,,Parque Iracema,15809-144,,,Rua dos Estudantes,225,
São Paulo,Itapecerica da Serra,,,Brazil,,,HOSPITAL SANTA MONICA ITAPECERICA DA SERRA,-23.6954646,-46.8140004,,ROOFTOP,,Jardim Campestre,06863-210,,,Estrada Santa Mônica,864,
São Paulo,Pitangueiras,,,Brazil,,,SANTA CASA DE PITANGUEIRAS,-21.0133781,-48.2155721,,ROOFTOP,,Jardim Brasilia,14750-000,,,Rua Iguaçu,510,
,,,,,,,ASSOC CRUZ VERDE,,,,,,,,,,,,
São Paulo,São Paulo,,,Brazil,,,HOSPITAL SEPACO,-23.595213,-46.6275843,,ROOFTOP,,Vila Mariana,04102-900,,,Rua Vergueiro,4210,
,,,,,,,CASA DE SAUDE NSRA DO CAMINHO,,,,,,,,,,,,
São Paulo,São Paulo,,,Brazil,,,HOSPITAL GRAACC INSTITUTO DE ONCOLOGIA PEDIATRICA IOP,-23.5980752,-46.64251549999999,,ROOFTOP,,Vila Clementino,04023-062,,,Rua Botucatu,743,
São Paulo,São Paulo,,,Brazil,,,HOSP NIPO BRASILEIRO,-23.5076137,-46.5689947,,ROOFTOP,,Parque Novo Mundo,02189-000,,,Rua Pistóia,100,
São Paulo,São Paulo,,,Brazil,,,HOSPITAL DO RIM E HIPERTENSAO,-23.596512,-46.6458473,,ROOFTOP,,Vila Clementino,04038-002,,,Rua Borges Lagoa,960,
São Paulo,Américo Brasiliense,,,Brazil,,,UNIDADE HOSPITALAR DR JOSE NIGRO NETO AMERICO BRASILIENSE,-21.7258065,-48.10586550000001,,ROOFTOP,,,14820-000,,,Avenida Teresa Marsilli,311,
São Paulo,Barretos,,,Brazil,,,FUNDACAO PIO XII BARRETOS,-20.5818193,-48.5688292,,ROOFTOP,,Doutor Paulo Prata,14784-400,,,Rua Antenor Duarte Viléla,1331,
São Paulo,Botucatu,,,Brazil,,,CAIS CANTIDIO DE MOURA CAMPOS BOTUCATU,-22.9281972,-48.4614014,,ROOFTOP,,Jardim Aeroporto,18606-851,,,Avenida José Ítalo Bacchi,S/N,
São Paulo,Cerqueira César,,,Brazil,,,SANTA CASA DE CERQUEIRA CESAR,-23.0393505,-49.1617926,,ROOFTOP,,Vila Angelica,18760-000,,,Rua Major Artur Esteves,700,
State of São Paulo,Colômbia,,,Brazil,,,HOSPITAL MUNICIPAL JULIO RODRIGUES DE PAULA COLOMBIA,-20.174512,-48.688955,,GEOMETRIC_CENTER,,,14795-000,,,,,
São Paulo,Igaratá,,,Brazil,,,UNIDADE MISTA DE SAUDE ANTONIA RAMOS PRIANTI,-23.2064582,-46.15521400000001,,ROOFTOP,,Centro,12350-000,,,Avenida Benedito Rodrigues de Freitas,300,
São Paulo,Itaberá,,,Brazil,,,SANTA CASA ITABERA,-23.8645053,-49.1377145,,ROOFTOP,,Jardim Espanha,18440-000,,,Rua Vinte e Três de Maio,385,
São Paulo,Matão,,,Brazil,,,HOSPITAL CARLOS FERNANDO MALZONI MATAO,-21.6051156,-48.368058,,ROOFTOP,,Centro,15990-840,,,Avenida Sete de Setembro,750,
State of São Paulo,Paranapanema,,,Brazil,,,HOSPITAL SAO JOSE PARANAPANEMA,-23.4349662,-48.8734692,,GEOMETRIC_CENTER,,Portal,18720-000,,,,,
São Paulo,Santa Rita do Passa Quatro,,,Brazil,,,SANTA CASA SANTA RITA DO PASSA QUATRO,-21.711149,-47.4800616,,ROOFTOP,,Centro,13670-000,,,Rua Inácio Ribeiro,279,
São Paulo,Santa Rita do Passa Quatro,,,Brazil,,,CAIS CENTRO ATENCAO INTEGRAL SAUDE SANTA RITA PASSA QUATRO,-21.7155,-47.4932666,,ROOFTOP,,Centro,13670-000,,,Avenida Padre Pio Corso,1523,
São Paulo,São José do Rio Preto,,,Brazil,,,H O REDENTORA HOSPITAL DE OLHOS,-20.8173274,-49.3857347,,ROOFTOP,,Centro,15015-200,,,Rua Voluntários de São Paulo,3855,
São Paulo,São Paulo,,,Brazil,,,HOSPITAL REGIONAL SUL SAO PAULO,-23.6554751,-46.7059168,,ROOFTOP,,Santo Amaro,04744-000,,,Rua General Roberto Alves de Carvalho Filho,270,
São Paulo,São Paulo,,,Brazil,,,HOSPITAL VITAL BRAZIL SAO PAULO,-23.5651288,-46.71970470000001,,ROOFTOP,,Butantã,05503-900,,,Avenida Vital Brasil,1500,
São Paulo,São Paulo,,,Brazil,,,HOSP NSRA DO PARI,-23.5318333,-46.6211578,,ROOFTOP,,Pari,03031-040,,,Rua Hannemann,234,
São Paulo,São Paulo,,,Brazil,,,AME MARIA ZELIA AMB MED ESPECIALIDADES MARIA ZELIA,-23.5311908,-46.5995728,,ROOFTOP,,Belenzinho,03021-040,,,Rua Jequitinhonha,368,
São Paulo,São Paulo,,,Brazil,,,INST CEMA DE OFTALMOLOGIA E OTORRINOLARINGOLOGIA,-23.5628298,-46.5908999,,ROOFTOP,,Alto da Mooca,03303-000,,,Rua Pascoal Moreira,450,
São Paulo,São Paulo,,,Brazil,,,CENTRO DE OFTALMOLOGIA TADEU CVINTAL,-23.5709832,-46.6456246,,ROOFTOP,,Bela Vista,01311-000,,,Avenida Paulista,91,5º andar
São Paulo,São Paulo,,,Brazil,,,HOSPITAL ESTADUAL DE SAPOPEMBA SAO PAULO,-23.6107551,-46.4929158,,ROOFTOP,,Vila Sapopemba,03975-130,,,Rua Manuel França dos Santos,174,
New York,New York County,,,United States,,10,CLINICA CHARCOT,40.74294159999999,-73.9838887,New York,ROOFTOP,,Manhattan,10016,,,"Park Ave S,",401,
São Paulo,São Paulo,,,Brazil,,,HOSPITAL DIA DA REDE HORA CERTA M BOI MIRIM I,-23.6663751,-46.7363112,,ROOFTOP,,Jardim Santa Josefina,05819-080,,,Rua Philippe de Vitry,280,
State of São Paulo,São Paulo,,,Brazil,,,COMPLEXO DE SAUDE DR WLADIMIR ARRUDA,-23.7307628,-46.713319,,GEOMETRIC_CENTER,,Jardim das Imbuias,04829-310,,,,,
São Paulo,São Paulo,,,Brazil,,,HOSPITAL GERAL DE VILA PENTEADO DR JOSE PANGELLA SAO PAULO,-23.4856232,-46.6952231,,ROOFTOP,,Jardim Iracema,02802-120,,,Avenida Ministro Petrônio Portela,1800,
Tamaulipas,,,,Mexico,,,HOSP VERA CRUZ,26.0828986,-98.280171,Reynosa,ROOFTOP,,Rodríguez,88630,,,Veracruz,542,
,,,,,,,HOSP PS COMUNITARIO V IOLANDA,,,,,,,,,,,,
São Paulo,Viradouro,,,Brazil,,,HOSPITAL E MATERNIDADE SAO VICENTE DE PAULO VIRADOURO,-20.8747691,-48.2990249,,GEOMETRIC_CENTER,,,14740-000,,,Rua do Hospital,,
São Paulo,Franco da Rocha,,,Brazil,,,HOSPITAL DE CLINICAS DE FRANCO DA ROCHA FRANCO DA ROCHA,-23.3340354,-46.7280101,,ROOFTOP,,Centro,07850-320,,,Avenida dos Coqueiros,300,
São Paulo,Itu,,,Brazil,,,SANTA CASA DE ITU,-23.2704814,-47.2952924,,ROOFTOP,,Centro,13300-025,,,Rua Joaquim Bernardes Borges,372,
São Paulo,Ibaté,,,Brazil,,,HOSPITAL MUNICIPAL IBATE,-21.956686,-47.995499,,ROOFTOP,,Bairro São Benedito,14815-000,,,Rua Floriano Peixoto,403,
São Paulo,Barretos,,,Brazil,,,SANTA CASA DE BARRETOS,-20.5592972,-48.5738993,,ROOFTOP,,Centro,14780-320,,,Avenida Vinte e Três,1208,
São Paulo,Fartura,,,Brazil,,,SANTA CASA DE FARTURA,-23.3929437,-49.5119728,,ROOFTOP,,São Vicente,18870-000,,,Praca José Sebastião Oliveira,44,
São Paulo,Bastos,,,Brazil,,,HOSPITAL DE BASTOS,-21.9220387,-50.72994680000001,,ROOFTOP,,Centro,17690-000,,,Rua Professor Paulo Seizi Zakimi,55,
São Paulo,Eldorado,,,Brazil,,,PRONTO DE ATENDIMENTO ELDORADO S P,-24.4672235,-48.19955909999999,,ROOFTOP,,CENTRO,11960-000,,,PRACA ENGENHEIRO BAUER LEITE,56,
São Paulo,Juquiá,,,Brazil,,,HOSPITAL SANTO ANTONIO DE JUQUIA JUQUIA,-24.3212683,-47.6345224,,ROOFTOP,,Centro,11800-000,,,Rua Felipe Fernandes,108,
São Paulo,Jandira,,,Brazil,,,HOSPITAL MUNICIPAL DE JANDIRA,-23.536427,-46.9013782,,ROOFTOP,,Vila Anita Costa,06604-010,,,Avenida Alberto Ruffolo,312,
São Paulo,Itaí,,,Brazil,,,IRMANDADE DA SANTA CASA DE MISERICORDIA DE ITAI,-23.4200994,-49.0990078,,GEOMETRIC_CENTER,,Jardim Monte Alto,18730-000,,,,,
São Paulo,Fernandópolis,,,Brazil,,,SANTA CASA DE FERNANDOPOLIS,-20.2957086,-50.2471421,,ROOFTOP,,Jardim Santista,15601-012,,,Avenida Afonso Cafaro,2630,
São Paulo,Santa Fé do Sul,,,Brazil,,,SANTA CASA DE SANTA FE DO SUL,-20.2129717,-50.9297792,,ROOFTOP,,Centro,15775-000,,,Rua Três,1269,
São Paulo,Nhandeara,,,Brazil,,,INAMEX NHANDEARA,-20.6907919,-50.0497778,,ROOFTOP,,,15190-000,,,Rua Benedito Carlos dos Réis,10,
São Paulo,Nhandeara,,,Brazil,,,HOSPITAL SAO DOMINGOS NA PROV DE DEUS NHANDEARA,-20.6990579,-50.0353846,,ROOFTOP,,Vila Aparecia,15190-000,,,Rua Nossa Senhora das Graças,272,
São Paulo,Colina,,,Brazil,,,HOSPITAL JOSE VENANCIO,-20.7119167,-48.5391232,,ROOFTOP,,,14770-000,,,Pc Lamounier Andrade,126,
São Paulo,Cajamar,,,Brazil,,,HOSPITAL ENF ANTONIO POLICARPO DE OLIVEIRA,-23.4117193,-46.8250973,,ROOFTOP,,Jardim Nova Cajamar,07793-665,,,Avenida Bento da Silva Bueno,202,
São Paulo,Jacareí,,,Brazil,,,SANTA CASA DE MISERICORDIA DE JACAREI,-23.3073785,-45.9703778,,ROOFTOP,,Centro,12327-270,,,Rua Antônio Afonso,119,
São Paulo,Mogi Guaçu,,,Brazil,,,SANTA CASA DE MOGI GUACU,-22.3645921,-46.9433382,,ROOFTOP,,Centro,13840-005,,,Rua Chico de Paula,608,
São Paulo,,,,Brazil,,,HOSPITAL MUNICIPAL DR TABAJARA RAMOS,-22.3679387,-46.9432454,,GEOMETRIC_CENTER,,,,,,,,
São Paulo,Potirendaba,,,Brazil,,,HOSPITAL ASSISTENCIAL MARIA CAVALOTTI NEVES POTIRENDABA,-21.0424305,-49.3766298,,ROOFTOP,,Vila Scarpelli,15105-000,,,Avenida Anna J. P. García,430,
São Paulo,Presidente Prudente,,,Brazil,,,HOSPITAL SAO JOAO PRESIDENTE PRUDENTE,-22.1071165,-51.3893779,,ROOFTOP,,Vila Maristela,19020-360,,,Rua Coronel Albino,838-912,
São Paulo,São José do Rio Preto,,,Brazil,,,HOSPITAL IELAR,-20.8131317,-49.3916979,,ROOFTOP,,Vila Nossa Senhora da Conceicao,15025-100,,,Rua Doutor Prisciliano Pinto,1811,
São Paulo,São José do Rio Preto,,,Brazil,,,HOSPITAL INFANTE D HENRIQUE,-20.8223579,-49.3903617,,ROOFTOP,,Vila Redentora,15015-750,,,Rua Luíz Vaz de Camões,3150,
São Paulo,São José do Rio Preto,,,Brazil,,,HOSPITAL BEZERRA DE MENEZES,-20.793446,-49.381121,,ROOFTOP,,Vila Esplanada,15010-100,,,Rua Major João Batista França,298,
São Paulo,São José do Rio Preto,,,Brazil,,,HORP HOSPITAL DO OLHO RIO PRETO,-20.8241275,-49.3865781,,ROOFTOP,,Nova Redentora,15010-100,,,Avenida José Munia,4500,Terreo
São Paulo,Valinhos,,,Brazil,,,IRMANDADE DA SANTA CASA DE MISERICORDIA DE VALINHOS,-22.9633173,-47.0114023,,GEOMETRIC_CENTER,,,13271-210,,,,,
São Paulo,Bragança Paulista,,,Brazil,,,SANTA CASA DE MISERICORDIA DE BRAGANCA PAULISTA,-22.9511698,-46.5433078,,ROOFTOP,,Centro,12900-480,,,Rua Coronel Assis Gonçalves,700,
São Paulo,São Paulo,,,Brazil,,,HOSPITAL PSIQUIATRICO DE VILA MARIANA,-23.5883552,-46.6388669,,ROOFTOP,,Vila Mariana,04017-030,,,Rua Major Maragliano,241,
São Paulo,São Paulo,,,Brazil,,,CASA DE DAVID SAO PAULO,-23.4309884,-46.5690791,,ROOFTOP,,Vila Ayrosa,02284-000,,,Rodovia Fernão Dias,Km 82,
São Paulo,São Paulo,,,Brazil,,,HOSPITAL GERAL DE VILA NOVA CACHOEIRINHA SAO PAULO,-23.4814904,-46.6724863,,ROOFTOP,,Vila Espanhola,02720-200,,,Avenida Deputado Emílio Carlos,3000,
São Paulo,São Paulo,,,Brazil,,,INST SUEL ABUJAMRA,-23.5649837,-46.6354268,,ROOFTOP,,Liberdade,01525-001,,,Rua Tamandaré,693,
São Paulo,São Paulo,,,Brazil,,,SANTA CASA DE SAO PAULO HOSPITAL CENTRAL SAO PAULO,-23.5426725,-46.6489723,,ROOFTOP,,Vila Buarque,01221-020,,,Rua Doutor Cesário Mota Júnior,112,
São Paulo,,,,Brazil,,,HOSPITAL DE MISERICORDIA NOSSA SENHORA APARECIDA,-22.8505206,-45.2337229,Aparecida,GEOMETRIC_CENTER,,,12570-000,,,,,
São Paulo,Santos,,,Brazil,,,SECAO HOSPITAL E MATERNIDADE MUNICIPAL DR SILVERIO FONTES,-23.9428394,-46.318038,,GEOMETRIC_CENTER,,,11013,,,Rua Doutor Silvério Fontes,,
São Paulo,Santos,,,Brazil,,,SECAO HOSPITAL MUNICIPAL DR ARTHUR DOMINGUES PINTO,-23.9435392,-46.3773089,,ROOFTOP,,Jardim Castelo,11087-180,,,Rua Ministro Agamenon Magalhães,s/n,
,,,,,,,UNIDADE MISTA DE SAUDE DE BURI,,,,,,,,,,,,
São Paulo,Vinhedo,,,Brazil,,,SANTA CASA DE VINHEDO,-23.0341831,-46.9797969,,ROOFTOP,,Jardim Santa Rosa,13280-000,,,Avenida Independência,4705,
São Paulo,Conchas,,,Brazil,,,HOSPITAL MUNICIPAL DE CONCHAS,-23.0181824,-48.01144060000001,,ROOFTOP,,Centro,18570-000,,,Rua Alexandre José,87,
São Paulo,Jundiaí,,,Brazil,,,INSTITUTO JUNDIAIENSE LUIZ BRAILLE UNIDADE I,-23.1933026,-46.8930421,,ROOFTOP,,Anhangabaú,13208-090,,,Avenida Doutor Sebastião Mendes da Silva,539,
São Paulo,Ubatuba,,,Brazil,,,SANTA CASA DE MISERICORDIA DE UBATUBA,-23.4349357,-45.0712711,,GEOMETRIC_CENTER,,Centro,11680-000,,,,,
São Paulo,Bragança Paulista,,,Brazil,,,HOSPITAL UNIVERSITARIO SAO FRANCISCO NA PROVIDENCIA DE DEUS,-22.9807087,-46.5336811,,ROOFTOP,,Cidade Universitária,12916-542,,,Avenida São Francisco de Assis,260,
São Paulo,Mococa,,,Brazil,,,SANTA CASA DE MOCOCA MOCOCA,-21.464202,-47.006936,,ROOFTOP,,Jardim Rigobelo,13730-119,,,Praça Doutor Jeferson Ferraz,90,
São Paulo,Ribeirão Branco,,,Brazil,,,HOSPITAL MUNICIPAL MARIA ROSA CARDOSO,-24.2257176,-48.7676728,,GEOMETRIC_CENTER,,Centro,18430-000,,,Rua Capitão Elías Pereira,,
São Paulo,Franca,,,Brazil,,,SANTA CASA DE FRANCA,-20.5378899,-47.3988708,,ROOFTOP,,Centro,14400-730,,,Rua Doutor Júlio Cardoso,1826,
São Paulo,Franco da Rocha,,,Brazil,,,UNIDADE DE PRONTO ATENDIMENTO DE FRANCO DA ROCHA UPA II,-23.3333986,-46.7246709,,ROOFTOP,,Centro,07850-902,,,Avenida Liberdade,250,
São Paulo,Santos,,,Brazil,,,SECAO CENTRO DE REFERENCIA EM AIDS SECRAIDS,-23.9455093,-46.3191026,,ROOFTOP,,Vila Matias,11015-020,,,Rua Silva Jardim,94,
São Paulo,Sorocaba,,,Brazil,,,HOSPITAL EVANGELICO DE SOROCABA,-23.5047181,-47.4729634,,ROOFTOP,,Vila Jardini,18044-010,,,Rua Imperatriz Leopoldina,136,
São Paulo,Sorocaba,,,Brazil,,,HOSPITAL UNIMED DE SOROCABA DR MIGUEL VILLA NOVA SOEIRO,-23.5325204,-47.4952364,,ROOFTOP,,Parque Santa Isabel,18052-210,,,Rua Antonia Dias Petri,135,
São Paulo,Sorocaba,,,Brazil,,,SANTA CASA DE SOROCABA,-23.4992807,-47.4445202,,ROOFTOP,,Jardim Árvore Grande,18013-000,,,Avenida São Paulo,750,
Massachusetts,Suffolk County,,,United States,,,HOSPITAL DIA EM AIDS,42.3384624,-71.1053946,Boston,ROOFTOP,Medical Center Area,,02115,,,Longwood Avenue,333,Suite 650
São Paulo,Praia Grande,,,Brazil,,,COMPLEXO HOSPITALAR IRMA DULCE O S S,-24.0040874,-46.4187032,,ROOFTOP,,Boqueirão,11701-210,,,Rua Dair Borges,550,
State of São Paulo,Mirassol,,,Brazil,,,HOSP E MAT MAE DIV AMOR PROV DEUS MIRASSOL,-20.8157875,-49.5047803,Mirassol,APPROXIMATE,,,15130-000,,,,,
São Paulo,Ouroeste,,,Brazil,,,HOSPITAL JOAO VELLOSO,-20.00474,-50.3708883,,ROOFTOP,,Centro,15685-000,,,Avenida dos Bandeirantes,1026,
São Paulo,Altinópolis,,,Brazil,,,HOSPITAL DE MISERICORDIA ALTINOPOLIS,-21.0266829,-47.37591680000001,,ROOFTOP,,,14350-000,,,Avenida Doutor Alberto Crivelenti,725,
São Paulo,Jundiaí,,,Brazil,,,HOSPITAL DA CRIANCA GRENDACC,-23.1614736,-46.9113985,,ROOFTOP,,Parque da Represa,13214-550,,,Rua Olívio Boa,99,
São Paulo,Marília,,,Brazil,,,HOSPITAL SAO FRANCISCO MARILIA,-22.2466779,-49.9338849,,ROOFTOP,,Jardim Monte Castelo,17522-230,,,Rua Coronel Moreira César,475,
Minas Gerais,Belo Horizonte,,,Brazil,,,HOSPITAL PSIQUIATRICO ANDRE LUIZ,-19.9501048,-43.9800046,,ROOFTOP,,Salgado Filho,30570-000,,,Rua Úrsula Paulino,7,
São Paulo,Flórida Paulista,,,Brazil,,,SANTA CASA DE MISERICORDIA DE FLORIDA PAULISTA,-21.6202531,-51.1710184,,ROOFTOP,,Centro,17830-000,,,Avenida XV de Novembro,900,
São Paulo,Orlândia,,,Brazil,,,HOSPITAL BENEFICENTE SANTO ANTONIO ORLANDIA,-20.7238014,-47.8908987,,ROOFTOP,,Centro,14620-000,,,Rua Três,941,
São Paulo,Morro Agudo,,,Brazil,,,HOSPITAL SAO MARCOS MORRO AGUDO,-20.735806,-48.055143,,ROOFTOP,,Parque Dom Pedro,14640-000,,,Rua Sebastião Antônio Muniz,164,
São Paulo,Franco da Rocha,,,Brazil,,,COMPLEXO HOSPITALAR JUQUERY FRANCO DA ROCHA,-23.3366172,-46.7297178,,APPROXIMATE,,Complexo Hospitalar do Juquery,07803,,,,,
São Paulo,Santa Rosa de Viterbo,,,Brazil,,,SANTA CASA DE SANTA ROSA DE VITERBO,-21.4756385,-47.3642157,,ROOFTOP,,CENTRO,14270-000,,,Rua Doutor Henrique Dumont,582,
,,,,,,,CASA DE SAUDE SANTA EMILIA DOURADO,,,,,,,,,,,,
São Paulo,Nova Europa,,,Brazil,,,SANTA CASA DE MISERICORDIA NOVA EUROPA,-21.7777882,-48.5663885,,GEOMETRIC_CENTER,,,14920-000,,,Rua Osvaldo Pongetti,,
São Paulo,Ribeirão Bonito,,,Brazil,,,SANTA CASA DE MISERICORDIA RIBEIRAO BONITO,-22.072682,-48.176671,,ROOFTOP,,Jardim Primavera,13580-000,,,Rua Hortência,120,
São Paulo,Ilhabela,,,Brazil,,,HOSPITAL MARIO COVAS JUNIOR,-23.8233829,-45.3783486,,ROOFTOP,,Barra Velha,11630-000,,,Avenida Profº Malaquias de O. Freitas,154,
São Paulo,Paraibuna,,,Brazil,,,SANTA CASA DE PARAIBUNA,-23.3875408,-45.6606953,,ROOFTOP,,,12260-000,,,Rua Major Soares,170,
São Paulo,São José dos Campos,,,Brazil,,,SANTA CASA DE MISERICORDIA DE SAO JOSE DOS CAMPOS,-23.1857514,-45.8827015,,ROOFTOP,,Centro,12210-270,,,Rua Doutor Ivan de Souza Lopes,47,
São Paulo,Botucatu,,,Brazil,,,HOSPITAL DAS CLINICAS DE BOTUCATU,-22.8904946,-48.4741133,,GEOMETRIC_CENTER,,Parque das Cascatas,18607-741,,,Via Domingos Sartori,,
,,,,Brazil,,,HOSPITAL REGIONAL DE BOTUCATU,-22.8910512,-48.4962613,,GEOMETRIC_CENTER,,Jardim Sao Jose,18618-970,,,,,
São Paulo,Santa Maria da Serra,,,Brazil,,,HOSPITAL MUNICIPAL JORGE CURY DE SANTA MARIA DA SERRA,-22.5711925,-48.1589773,,GEOMETRIC_CENTER,,,17370-000,,,Rua Adibe Cury,,
São Paulo,Charqueada,,,Brazil,,,HOSP MAT BENEF DE CHARQUEADA,-22.502343,-47.780748,,ROOFTOP,,São Benedito,13515-000,,,Rua Osvaldo Cruz,70,
São Paulo,Capivari,,,Brazil,,,SANTA CASA DE CAPIVARI,-22.9987505,-47.4928761,,ROOFTOP,,Vila do Carmo,13360-000,,,Praça Dr. Mário Dias de Aguiar,1,
São Paulo,Casa Branca,,,Brazil,,,CENTRO DE REABILITACAO DE CASA BRANCA,-21.778942,-47.019869,,ROOFTOP,,Zona Rural,13700-000,,,"Rodovia SP-340, Km 238",s/n,
São Paulo,Tambaú,,,Brazil,,,SANTA CASA DE MISERICORDIA DE TAMBAU,-21.7039632,-47.2722644,,ROOFTOP,,Centro,13710-000,,,Rua Coronel Manoel S Meireles,40,
São Paulo,Taubaté,,,Brazil,,,HOSPITAL UNIVERSITARIO DE TAUBATE,-23.021314,-45.5567945,,ROOFTOP,,Centro,12020-130,,,Avenida Granadeiro Guimarães,270,
São Paulo,Presidente Prudente,,,Brazil,,,HOSPITAL ESTADUAL DR ODILO ANTUNES DE SIQUEIRA P PRUDENTE,-22.1421974,-51.39952,,ROOFTOP,,Jardim Bongiovani,19050-390,,,Rua Marrey Júnior,84,
São Paulo,Iepê,,,Brazil,,,HOSPITAL MUNICIPAL DE IEPE,-22.6598932,-51.0791495,,ROOFTOP,,Centro,19640-000,,,Rua José Simões Filho,81,
São Paulo,Rosana,,,Brazil,,,HOSPITAL ESTADUAL PORTO PRIMAVERA ROSANA,-22.5307953,-52.9483964,,ROOFTOP,,Primavera,19274-000,,,Avenida dos Barrageiros,S/N,
São Paulo,Pirapozinho,,,Brazil,,,HOSPITAL STA MARIA DE PIRAPOZINHO,-22.277405,-51.4994932,,ROOFTOP,,,19200-000,,,Rua Tiradentes,1111,
São Paulo,Dracena,,,Brazil,,,SANTA CASA DE DRACENA,-21.4785812,-51.5371774,,ROOFTOP,,Centro,17900-000,,,Rua Virgílio Pagnozi,822,
São Paulo,Junqueirópolis,,,Brazil,,,SANTA CASA DE JUNQUEIROPOLIS,-21.514993,-51.4387238,,ROOFTOP,,Centro,17890-000,,,Rua Pôrto Alegre,1221,
São Paulo,Martinópolis,,,Brazil,,,SANTA CASA MISERICORDIA PADRE JOAO SCHNEIDER MARTINOPOLIS,-22.1461622,-51.17005710000001,,ROOFTOP,,Centro,19500-000,,,Rua José Henrique de Mello,236,
São Paulo,Presidente Epitácio,,,Brazil,,,SANTA CASA DE PRESIDENTE EPITACIO,-21.7739921,-52.1114426,,ROOFTOP,,VIla Maria,19470-000,,,Rua Antônio Venâncio Lopes,942,
São Paulo,Santo Anastácio,,,Brazil,,,SANTA CASA DE SANTO ANASTACIO,-21.9762156,-51.6512885,,ROOFTOP,,Centro,19360-000,,,Praça Dr. Luís Ramos e Silva,328,
São Paulo,Cerquilho,,,Brazil,,,SANTA CASA DE MISERICORDIA DE CERQUILHO,-23.171535,-47.743838,,ROOFTOP,,Centro,18520-000,,,Rua Paulo Setúbal,200,
São Paulo,Espírito Santo do Pinhal,,,Brazil,,,HOSPITAL FRANCISCO ROSAS E S PINHAL SP,-22.1943607,-46.7418209,,ROOFTOP,,Centro,13990-000,,,Rua Teixeira Rios,210,
São Paulo,Presidente Prudente,,,Brazil,,,HOSPITAL E MATERNIDADE NOSSA SENHORA DAS GRACAS,-22.1211547,-51.3894015,,ROOFTOP,,Centro,19015-140,,,Rua Doutor Gurgel,715,
São Paulo,Ituverava,,,Brazil,,,SANTA CASA DE MISERICORDIA DE ITUVERAVA,-20.3364621,-47.7882936,,ROOFTOP,,Centro,14500-000,,,Praça Monsenhor João Rulli,729,
São Paulo,Mauá,,,Brazil,,,SANTA CASA DE MAUA,-23.6810706,-46.4610409,,ROOFTOP,,Vila Assis Brasil,09370-090,,,Avenida Dom José Gaspar,1374,
São Paulo,São Paulo,,,Brazil,,,HOSPITAL DIA DA REDE HORA CERTA VILA PRUDENTE,-23.5821437,-46.5826241,,ROOFTOP,,Vila Prudente,03132-050,,,Praça Centenário de Vila Prudente,108,
São Paulo,São Paulo,,,Brazil,,,HD DA REDE HORA CERTA IPIRANGA FLAVIO GIANNOTTI,-23.5876645,-46.6086622,,ROOFTOP,,Ipiranga,04203-000,,,Rua Xavier de Almeida,210,
São Paulo,São Paulo,,,Brazil,,,HOSPITAL DIA DA REDE HORA CERTA CIDADE ADEMAR,-23.6956122,-46.6596063,,ROOFTOP,,Balneário Mar Paulista,04463-010,,,Rua Córrego Azul,433,
São Paulo,São Paulo,,,Brazil,,,HOSPITAL DIA DA REDE HORA CERTA PENHA MAURICE PATE,-23.5265776,-46.5503177,,ROOFTOP,,Penha de França,03632-010,,,Praça Nossa Senhora da Penha,55,
São Paulo,São Paulo,,,Brazil,,,HOSPITAL DIA DA REDE HORA CERTA SAO MIGUEL TITO LOPES,-23.4971861,-46.4405179,,ROOFTOP,,Vila Americana,08010-020,,,Rua João Augusto Morais,348,
São Paulo,São Paulo,,,Brazil,,,HOSP DO SERV PUB MUNICIPAL HSPM,-23.566786,-46.639245,,ROOFTOP,,Aclimação,01532-000,,,Rua Castro Alves,60,
Bahia,Salvador,,,Brazil,,,HOSPITAL SANTO AMARO,-12.9979088,-38.5160595,,ROOFTOP,,Federação,40000-001,,,Ladeira do Campo Santo,s/n,
,,,,,,,AMBULATORIO DE SAUDE MENTAL E HOSP DIA NICANOR P DE GODOY,,,,,,,,,,,,
São Paulo,Pindamonhangaba,,,Brazil,,,SANTA CASA DE PINDAMONHANGABA,-22.9318482,-45.4585948,,ROOFTOP,,Centro,12410,,,Rua Major José dos Santos Moreira,466,
São Paulo,Presidente Prudente,,,Brazil,,,HOSPITAL DOMINGOS LEONARDO CERAVOLO PRESIDENTE PRUDENTE,-22.1323104,-51.407395,,ROOFTOP,,Cidade Universitária,19050-680,,,Rua José Bongiovani,1297,
São Paulo,Lins,,,Brazil,,,SANTA CASA DE LINS,-21.6721476,-49.75558480000001,,ROOFTOP,,Centro,16403-265,,,Rua Pedro de Toledo,486,
São Paulo,São Sebastião,,,Brazil,,,HOSPITAL DE CLINICAS DE SAO SEBASTIAO,-23.8040733,-45.4024764,,ROOFTOP,,Centro,11608-608,,,Rua Capitão Luís Soares,550,
São Paulo,Sorocaba,,,Brazil,,,HOSPITAL SANTA LUCINDA SOROCABA,-23.509427,-47.4562794,,GEOMETRIC_CENTER,,Jardim Vergueiro,18030-083,,,Rua Claudio Manoel da Costa,,
São Paulo,Rio das Pedras,,,Brazil,,,HOSPITAL E MATERNIDADE SAO VICENTE DE PAULO RIO DAS PEDRAS,-22.847151,-47.6082724,,ROOFTOP,,CENTRO,13390-000,,,Rua São Vicente de Paula,60,
São Paulo,Piracicaba,,,Brazil,,,SANTA CASA DE PIRACICABA,-22.7372796,-47.6434736,,ROOFTOP,,Alto,13417,,,Avenida Independência,953,
,,,,,,,HOSPITAL DO CANCER DR FLAVIO ISAIAS RODRIGUES MOGI DAS CRUZE,,,,,,,,,,,,
São Paulo,Guararema,,,Brazil,,,SANTA CASA DE GUARAREMA,-23.4144411,-46.0364485,,ROOFTOP,,Centro,08900-000,,,Pc Dr Botelho Egas,11,
California,Kern County,,,United States,,,HOSPITAL DE AGUDOS,35.7622089,-119.2397627,Delano,ROOFTOP,,,93215,3690,,Garces Highway,1401,
São Paulo,Indaiatuba,,,Brazil,,,HOSPITAL AUGUSTO DE OLIVEIRA CAMARGO,-23.0923014,-47.2120752,,ROOFTOP,,Jardim Santa Cruz,13344-700,,,Avenida Francisco de Paula Leite,399 1,
São Paulo,Taboão da Serra,,,Brazil,,,UNIDADE MISTA DE TABOAO DA SERRA,-23.6286662,-46.793225,,ROOFTOP,,Jardim Trianon,06783-230,,,Estrada Tenente José Maria da Cunha,862,
São Paulo,Pirassununga,,,Brazil,,,SANTA CASA DE PIRASSUNUNGA,-21.9960798,-47.4224036,,ROOFTOP,,Centro,13631-045,,,Avenida Newton Prado,1883,
São Paulo,Jundiaí,,,Brazil,,,HCSVP HOSPITAL SAO VICENTE,-23.183918,-46.8898835,,ROOFTOP,,Centro,13201-625,,,Rua São Vicente de Paulo,223,
São Paulo,São Paulo,,,Brazil,Proximo depósito Fernanda e Hospital,,HOSP MUN FERNANDO MAURO PIRES DA ROCHA,-23.6490383,-46.7493555,,GEOMETRIC_CENTER,,Vila Maracana,05835-005,,,Estrada de Itapecerica,,
São Paulo,Guarujá,,,Brazil,,,UMI ANA FERNANDES DE FREITAS ANA PARTEIRA GUARUJA,-23.9485544,-46.29393880000001,,GEOMETRIC_CENTER,,Sítio Paecara (Vicente de Carvalho),11460-004,,,Rua Osvaldo Boudichi Fernandes,,
São Paulo,Bauru,,,Brazil,,,HOSPITAL DE BASE DE BAURU,-22.3304631,-49.0765772,,ROOFTOP,,Centro,17014-340,,,Avenida Duque de Caxias,1063,
São Paulo,Bauru,,,Brazil,,,HOSPITAL DE REABILITACAO DE ANOMALIAS CRANIOFACIAIS BAURU,-22.333805,-49.05992699999999,,ROOFTOP,,Vila Nova Cidade Universitaria,17012-900,,,Rua Silvio Marchione,3-20,
São Paulo,Bauru,,,Brazil,,,MATERNIDADE SANTA ISABEL,-22.3339012,-49.0653037,,ROOFTOP,,Vila Universitaria,17012-055,,,Rua Araújo Leite,26-27,
São Paulo,Igaraçu do Tietê,,,Brazil,,,HOSPITAL E MATERNIDADE SAO CAMILO IGARACU TIETE,-22.51256,-48.5539871,Igaraçu do Tietê,APPROXIMATE,,,17350-000,,,,,
São Paulo,Bauru,,,Brazil,,,HOSPITAL ESTADUAL BAURU,-22.338597,-49.0280905,,ROOFTOP,,Nucleo Residencial Presidente Geisel,17033-360,,,Avenida Engenheiro Luís Edmundo Carrijo Coube,1-100,
São Paulo,Promissão,,,Brazil,,,HOSPITAL GERAL PREFEITO MIGUEL MARTIN GUALDA DE PROMISSAO,-21.541945,-49.8607421,,ROOFTOP,,Centro,16370-000,,,Avenida General Euríco Gaspar Dutra,620,
São Paulo,Duartina,,,Brazil,,,HOSPITAL SANTA LUZIA DUARTINA,-22.4147863,-49.41621869999999,,ROOFTOP,,Vila Duartina,17470-000,,,Rua Doutor Gil Borges,226,
São Paulo,Jaú,,,Brazil,,,HOSPITAL TEREZA PERLATTI JAU,-22.2987305,-48.571269,,ROOFTOP,,Jardim Estadio,17203-450,,,Rua Luís Maniero,278,
São Paulo,Bauru,,,Brazil,,,HOSPITAL UNIMED DE BAURU,-22.3216786,-48.9754307,,ROOFTOP,,Parque Santa Terezinha,17035-500,,,Avenida Doutor Arnaldo Prado Curvello,110,Quadra 10
São Paulo,,,,Brazil,,,INSTITUTO LAURO DE SOUZA LIMA BAURU,-22.3245419,-48.9826512,,ROOFTOP,,Distrito Industrial Marcus Vinícius Feliz Machado,17034-971,,,Rodovia Comandante João Ribeiro de Barros,s/n,
São Paulo,Pirajuí,,,Brazil,,,LAR IRMA DULCE NA PROVIDENCIA DE DEUS PIRAJUI,-22.0032757,-49.456492,,ROOFTOP,,,16600-000,,,Rua Voluntário Silvano de Lima,1035,
São Paulo,Arealva,,,Brazil,,,SANTA CASA DE AREALVA,-22.0296434,-48.90799759999999,,ROOFTOP,,Centro,17160-000,,,Rua Jacinto Ribeiro de Barros,342,
São Paulo,Bariri,,,Brazil,,,SANTA CASA DE BARIRI,-22.0702598,-48.7377905,,ROOFTOP,,Vila Santa Terezinha,17250-000,,,Avenida Coronel Antônio José de Carvalho,409,
São Paulo,Cafelândia,,,Brazil,,,SANTA CASA DE CAFELANDIA,-21.8112628,-49.5958692,,ROOFTOP,,,16500-000,,,Rua Justino Francisco Júnior,181,
São Paulo,Dois Córregos,,,Brazil,,,SANTA CASA DE DOIS CORREGOS,-22.3622186,-48.3814501,,ROOFTOP,,Centro,17300-000,,,Avenida Doutor Joaquim Roberto de Carvalho Pinto,896,
São Paulo,Getulina,,,Brazil,,,SANTA CASA DE GETULINA,-21.8026883,-49.9317262,,GEOMETRIC_CENTER,,Residencial dos Oliveiras,16450-000,,,,,
São Paulo,Iacanga,,,Brazil,,,SANTA CASA DE IACANGA,-21.8901238,-49.03141979999999,,ROOFTOP,,Centro,17180-000,,,Avenida Laenert García dos Santos,68,
São Paulo,Jaú,,,Brazil,,,SANTA CASA DE JAU,-22.2916998,-48.562121,,ROOFTOP,,Centro,17201-340,,,Rua Riachuelo,1073,
São Paulo,Bocaina,,,Brazil,,,SANTA CASA DE MISERICORDIA DE BOCAINA,-22.1399026,-48.5174746,,ROOFTOP,,CENTRO,17240-000,,,Rua Cerqueira César,239,
São Paulo,Pederneiras,,,Brazil,,,SANTA CASA DE PEDERNEIRAS,-22.3507065,-48.7801943,,ROOFTOP,,Centro,17280-000,,,Avenida Paulista,O-325,
São Paulo,Piratininga,,,Brazil,,,SANTA CASA DE PIRATININGA,-22.4129416,-49.1321753,,ROOFTOP,,Centro,17490-000,,,Rua Anchieta,102,
,,,,,,,CENTRO DE REFERENCIA MODULO I SAE II ADT III HD,,,,,,,,,,,,
São Paulo,Cotia,,,Brazil,,,HOSPITAL REGIONAL DE COTIA,-23.6089894,-46.9198806,,ROOFTOP,,Jardim Monte Santo,06717-200,,,Avenida Doutor Odair Pacheco Pedroso,171,
São Paulo,Carapicuíba,,,Brazil,,,HOSPITAL GERAL DE CARAPICUIBA,-23.5340247,-46.8305217,,ROOFTOP,,Parque Jose Alexandre,06321-665,,,Rua da Pedreira,95,
São Paulo,Itapecerica da Serra,,,Brazil,,,HOSPITAL GERAL DE ITAPECERICA DA SERRA,-23.700598,-46.84801119999999,,ROOFTOP,,Embu Mirim,06854-000,,,Avenida Guacy Fernandes Domingues,200,
São Paulo,Itirapina,,,Brazil,,,HOSPITAL SAO JOSE ITIRAPINA,-22.249813,-47.8224301,,ROOFTOP,,Vila Cianeli,13530-000,,,Avenida Nove,709,
São Paulo,São José do Rio Preto,,,Brazil,,,SANTA CASA DE MISERICORDIA DE SAO JOSE DO RIO PRETO,-20.8037978,-49.3866618,,ROOFTOP,,Boa Vista,15025-500,,,Rua Fritz Jacobs,1236,
São Paulo,Diadema,,,Brazil,,,PRONTO SOCORRO CENTRAL DE DIADEMA,-23.6862896,-46.6170126,,ROOFTOP,,Centro,09911-190,,,Rua Tiradentes,100,
São Paulo,São Paulo,,,Brazil,,,FUNDACAO FACULDADE DE MEDICINAHCFMUSP INST DE PSIQUIATRIA SP,-23.5574155,-46.6661759,,ROOFTOP,,Pinheiros,05401-000,,,Avenida Rebouças,381,
São Paulo,São Paulo,,,Brazil,,,CENTRO HOSPITALAR DO SISTEMA PENITENCIARIO SAO PAULO,-23.5092082,-46.6191949,,ROOFTOP,,Carandiru,02028-000,,,Rua Dom José Maurício,15,
São Paulo,São Paulo,,,Brazil,,,HU HOSPITAL UNIVERSITARIO,-23.5650797,-46.7406904,,ROOFTOP,,Butantã,05508-000,,,Avenida Professor Lineu Prestes,2565,
São Paulo,São Vicente,,,Brazil,,,HOSPITAL MUNICIPAL DE SAO VICENTE,-23.9644989,-46.3873113,,ROOFTOP,,Centro,11310-421,,,Rua Ipiranga,353,
São Paulo,Francisco Morato,,,Brazil,,,HOSPITAL ESTADUAL PROF CARLOS DA SILVA LACAZ FCO MORATO,-23.283681,-46.7476531,,ROOFTOP,,Belem Estacao,07901-155,,,Rodovia Manoel Silvério Pinto,125,
,,,,,,,STS ESTETICLIN,,,,,,,,,,,,
São Paulo,Taubaté,,,Brazil,,,HOSPITAL REGIONAL DO VALE DO PARAIBA,-23.029438,-45.5666919,,ROOFTOP,,Jardim das Nações,12030-180,,,Avenida Tiradentes,280,
São Paulo,Itapetininga,,,Brazil,,,HOSPITAL DR LEO ORSI BERNARDES ITAPETININGA,-23.584582,-48.0451682,,ROOFTOP,,Centro,18200-075,,,Rua Padre Albuquerque,245,
São Paulo,São Paulo,,,Brazil,,,HOSP MUN VER JOSE STOROPOLLI,-23.5220191,-46.5621399,,ROOFTOP,,Parque Novo Mundo,02181-160,,,Rua Francisco Fanganiello,127,
São Paulo,São Bernardo do Campo,,,Brazil,,,SANTA CASA DE MISERICORDIA DE SAO BERNARDO DO CAMPO,-23.7157535,-46.5744694,,ROOFTOP,,Assunção,09860-214,,,Avenida Robert Kennedy,2900,
São Paulo,Ribeirão Preto,,,Brazil,,,HOSPITAL ELECTRO BONINI RIBEIRAO PRETO,-21.2006609,-47.7799319,,ROOFTOP,,Ribeirânia,14091,,,Marginal da Avenida Leão XIII,1000,
Colorado,,,,United States,,,KAISER CLINICA,39.776272,-104.858744,Denver,ROOFTOP,,,80239,3004,,East 45th Avenue,11000,
São Paulo,São Roque,,,Brazil,,,HOSPITAL DE SAO ROQUE,-23.537508,-47.1384186,,ROOFTOP,,Vila Marques,18135-370,,,Rua Santa Isabel,186,
São Paulo,São José dos Campos,,,Brazil,,,UPA EUGENIO DE MELO,-23.1372607,-45.7836907,,ROOFTOP,,Eugênio de Melo,12247-190,,,Rua General Eugênio de Augusto Melo,101,
São Paulo,São Paulo,,,Brazil,,,HOSPITAL LEONOR MENDES DE BARROS,-23.535934,-46.588712,,ROOFTOP,,Belenzinho,03064-000,,,Avenida Celso Garcia,2477,
São Paulo,Salto,,,Brazil,,,HOSPITAL E MATERNIDADE MUNICIPAL N S DO MONTE SERRAT,-23.1905384,-47.3120585,,ROOFTOP,,Jardim Celani,13326-110,,,Rua Europa,345-419,
São Paulo,Osasco,,,Brazil,,,PRONTO SOCORRO PESTANA P S ANDRE SACCO,-23.5419087,-46.8010335,,ROOFTOP,,Pestana,06132-000,,,Avenida General Pedro Pinho,1250,
São Paulo,Osasco,,,Brazil,,,PRONTO SOCORRO DR OSMAR MESQUITA,-23.4985537,-46.79322029999999,,ROOFTOP,,Helena Maria,06132-000,,,Rua Maria Carvalho de Lima,363,
São Paulo,Várzea Paulista,,,Brazil,,,HOSPITAL MUNICIPAL DR AUCIPIO DA SILVA OLIVEIRA JUNIOR,-23.2121528,-46.8307939,,GEOMETRIC_CENTER,,Vila Sao Jose,13224-265,,,,,
São Paulo,Carapicuíba,,,Brazil,,,PRONTO SOCORRO DA VILA DIRCE,-23.5530431,-46.8363773,,ROOFTOP,,Vila Dirce,06382-260,,,Estrada Ernestina Vieira,70,
State of São Paulo,Diadema,,,Brazil,,,HOSPITAL INFANTIL DE DIADEMA,-23.6816587,-46.6203412,Diadema,APPROXIMATE,,,,,,,,
State of São Paulo,Juquitiba,,,Brazil,,,UMS DE JUQUITIBA,-23.9289154,-47.07149219999999,Juquitiba,APPROXIMATE,,,06950-000,,,,,
São Paulo,Ourinhos,,,Brazil,,,SANTA CASA DE OURINHOS,-22.9839001,-49.863722,,ROOFTOP,,Vila Moraes,19900-241,,,Rua Dom Pedro I,716,
São Paulo,Sorocaba,,,Brazil,,,CASA TRANSITORIA ANDRE LUIZ,-23.5173199,-47.4863209,,ROOFTOP,,Jardim Europa,18045-000,,,Avenida Américo de Carvalho,379,
,,,,,,,IEYES INSTITUTO DOS OLHOS,,,,,,,,,,,,
São Paulo,Marília,,,Brazil,,,INSTITUTO DE OLHOS DE MARILIA,-22.227319,-49.951271,,ROOFTOP,,Boa Vista,17501-530,,,Rua Akira Nagasse,151,
São Paulo,Guarulhos,,,Brazil,,,HOSPITAL MUNICIPAL PIMENTAS BONSUCESSO MANUEL DE PAIVA,-23.4399176,-46.4095042,,ROOFTOP,,Parque das Nacoes,07243-550,,,Rua São José do Paraíso,100,
São Paulo,Atibaia,,,Brazil,,,SANTA CASA DE ATIBAIA,-23.1144454,-46.5499755,,ROOFTOP,,Centro,12940-622,,,Praça Miguel Vairo,104,
São Paulo,São Paulo,,,Brazil,,,HOSP MUN CARMEN PRUDENTE,-23.5974535,-46.4038209,,ROOFTOP,,CENTRO,08471-000,,,Avenida dos Metalúrgicos,1797,
São Paulo,São Paulo,,,Brazil,,,HOSPITAL LOCAL DE SAPOPEMBA,-23.6107551,-46.4929158,,ROOFTOP,,Vila Sapopemba,03975-130,,,Rua Manuel França dos Santos,174,
São Paulo,São Paulo,,,Brazil,,,INSTITUTO DE REABILITACAO LUCY MONTORO,-23.5930062,-46.6287751,,ROOFTOP,,Jardim Vila Mariana,04101-300,,,Rua Domingo de Soto,100,
São Paulo,Pedreira,,,Brazil,,,CONSAUDE PEDREIRA,-22.7417906,-46.8953534,,ROOFTOP,,Vila Canesso,13920-000,,,Rua Henriqueta R Canesso,161,
São Paulo,São Bernardo do Campo,,,Brazil,,,PRONTO SOCORRO ALVARENGA,-23.7422114,-46.6029952,,GEOMETRIC_CENTER,,,,,,Estrada dos Alvarengas,,
,,,,,,,HOSPITAL UNIVERST DA UFSCAR PROF DR HORACIO C PANEPUCCI,,,,,,,,,,,,
São Paulo,Panorama,,,Brazil,,,PRONTO ATENDIMENTO PAULICEIA,-21.3608332,-51.8589073,,ROOFTOP,,Centro,17980-000,,,Rua Manoel Fernandes da Cunha,512,
São Paulo,São Bernardo do Campo,,,Brazil,,,PRONTO ATENDIMENTO DEMARCHI,-23.7447521,-46.5644259,,ROOFTOP,,Demarchi,09820-340,,,Rua Valdomiro Luís,303,
São Paulo,São Bernardo do Campo,,,Brazil,,,PRONTO ATENDIMENTO SILVINA,-23.7272123,-46.5486045,,ROOFTOP,,Ferrazópolis,09790-400,,,Avenida Doutor José Fornari,509,
São Paulo,São Paulo,,,Brazil,,,HOSP MUN M BOI MIRIM,-23.6922065,-46.7755813,,ROOFTOP,,Jardim Copacabana,04849-030,,,Estrada do M'Boi Mirim,5302,
São Paulo,Diadema,,,Brazil,,,QUARTEIRAO DA SAUDE,-23.6860757,-46.617227,,ROOFTOP,,Centro,09911-160,,,Avenida Antônio Piranga,700,
São Paulo,Marília,,,Brazil,,,HOSPITAL UNIVERSITARIO DE MARILIA,-22.2381509,-49.9665431,,ROOFTOP,,Jardim Sao Gabriel,17525-160,,,Rua Doutor Próspero Cecílio Coimbra,80,
,,,,,,,CENTRO DE TRATAMENTO FABIANA MACEDO DE MORAIS,,,,,,,,,,,,
State of São Paulo,Ribeirão Preto,,Conquista,Brazil,,,HOSPITAL ESTADUAL DE RIB PRETO DR CARLOS EDUARDO MARTINELLI,-21.1704008,-47.8103238,Ribeirao Preto,APPROXIMATE,,,,,,,,
São Paulo,Osasco,,,Brazil,,,PS FENELON GUEDES PEREIRA,-23.513787,-46.764427,,ROOFTOP,,Ayrosa,06283-110,,,Rua José Anacleto da Silva,276,
São Paulo,São Caetano do Sul,,,Brazil,,,HOSPITAL MUNICIPAL DE EMERGENCIAS ALBERT SABIN,-23.617571,-46.556677,,ROOFTOP,,Santa Paula,09551-340,,,Rua Aurélia,257,
São Paulo,Santo André,,,Brazil,,,HOSPITAL DA MULHER MARIA JOSE DOS SANTOS STEIN,-23.6351662,-46.49938849999999,,ROOFTOP,,Parque Novo Oratório,09270-410,,,Rua América do Sul,285,
São Paulo,Taboão da Serra,,,Brazil,,,PSI PRONTO SOCORRO INFANTIL DE TABOAO DA SERRA,-23.638974,-46.8048417,,ROOFTOP,,Jardim Santo Onofre,06785-070,,,Rua Marechal Artur da Costa e Silva,85,
São Paulo,Campinas,,,Brazil,,,COMPLEXO HOSPITALAR PREFEITO EDIVALDO ORSI,-22.9632816,-47.1347658,,ROOFTOP,,Chácara São José,13060-646,,,Avenida Ruy Rodrigues,3434,
São Paulo,Barueri,,,Brazil,,,HOSPITAL MUNICIPAL DE BARUERI DR FRANCISCO MORAN,-23.4969696,-46.8720315,,ROOFTOP,,Jardim Barueri,06463-320,,,Rua Ângela Mirella,354,
São Paulo,São Paulo,,,Brazil,,,INSTITUTO DO CANCER DO ESTADO DE SAO PAULO,-23.5560403,-46.6681225,,ROOFTOP,,Cerqueira César,01246-000,,,Avenida Doutor Arnaldo,251,
São Paulo,São Paulo,,,Brazil,,,HOSPITAL DIA DA REDE HORA CERTA MOOCA,-23.5709185,-46.5755302,,ROOFTOP,,Alto da Mooca,03192-060,,,Rua Farol Paulistano,410,
São Paulo,São Paulo,,,Brazil,,,HOSPITAL DIA DA REDE HORA CERTA ITAIM PAULISTA,-23.4889421,-46.3859046,,ROOFTOP,,Itaim Paulista,08115-100,,,Avenida Marechal Tito,6577,
São Paulo,Américo Brasiliense,,,Brazil,,,HOSPITAL ESTADUAL AMERICO BRASILIENSE,-21.7411191,-48.1220268,,ROOFTOP,,Jardim Vista Alegre,14820-000,,,Alameda Aldo Lupo,1260,
São Paulo,Santa Bárbara d'Oeste,,,Brazil,,,AME AMBULATORIO MED DE ESPECIALIDADES STA BARBARA DOESTE,-22.7476628,-47.3761956,,ROOFTOP,,Jardim Esmeralda,13454-026,,,Rua da Seda,250,
São Paulo,Caraguatatuba,,,Brazil,,,AME AMBULATORIO MEDICO DE ESPECIALIDADES DE CARAGUATATUBA,-23.6267911,-45.4271626,,GEOMETRIC_CENTER,,Indaiá,11660,,,,,
São Paulo,São José do Rio Preto,,,Brazil,,,HOSPITAL ESTADUAL JOAO PAULO II SAO JOSE DO RIO PRETO,-20.806877,-49.35964449999999,,ROOFTOP,,Jardim Fuscaldo,15061-060,,,Avenida Lino José de Seixas,1455,
São Paulo,Piracicaba,,,Brazil,,,AME PIRACICABA DR OSWALDO CAMBIAGHI,-22.7347504,-47.6426705,,ROOFTOP,,Jardim Elite,13419-311,,,Rua Riachuelo,1850,
São Paulo,Barretos,,,Brazil,,,AME AMBULATORIO MEDICO DE ESPECIALIDADES BARRETOS,-20.5741427,-48.5873515,,ROOFTOP,,Aeroporto,14785-000,,,Avenida Loja Maçônica Renovadora,105,
Baja California,,,,Mexico,,,CENTRO OFTALMOLOGICO DE REFERENCIA,32.66565,-115.48009,Mexicali,ROOFTOP,,Primera,21100,,,Avenida Fco. I. Madero,# 901,
São Paulo,São Paulo,,,Brazil,,,HOSP DIA DA RHC SAO MATEUS DR HENRIQUE C GONCALVES,-23.5877109,-46.4920295,,ROOFTOP,,Jardim Tiete,03947-030,,,Rua Augusto Ferreira Ramos,9,
Minas Gerais,Juiz de Fora,,,Brazil,,,UPA SAO PEDRO,-21.7748032,-43.38437649999999,,ROOFTOP,,São Pedro,36037-440,,,Rua Major Lino Lima,129,
São Paulo,Conchas,,,Brazil,,,HOSPITAL DE CONCHAS,-23.0181824,-48.01144060000001,,ROOFTOP,,Centro,18570-000,,,Rua Alexandre José,87,
São Paulo,Arujá,,,Brazil,,,HOSPITAL DALILA FERREIRA BARBOSA,-23.3923472,-46.3147257,,ROOFTOP,,Jardim Renata,07432-575,,,Rua Diomar Fernandes Negretti,400,
São Paulo,Queluz,,,Brazil,,,SANTA CASA DE QUELUZ,-22.5384729,-44.7728954,,ROOFTOP,,,12800-000,,,Rua Nossa Senhora de Fátima,65,
São Paulo,São Paulo,,,Brazil,,,AME DR LUIZ ROBERTO BARRADAS BARATA SAO PAULO,-23.6099997,-46.5897659,,ROOFTOP,,Cidade Nova Heliópolis,04230-000,,,Avenida Almirante Delamare,1534,
São Paulo,São Bernardo do Campo,,,Brazil,,,UPA DEMARCHI BATISTINI,-23.7447521,-46.5644259,,ROOFTOP,,Demarchi,09820-340,,,Rua Valdomiro Luís,303,
,,,,,,,UNAD UNIDADE DE ATENDIMENTO AO DEPENDENTE,,,,,,,,,,,,
Distrito Federal,Brasília,,,Brazil,,,PRONTO ATENDIMENTO INFANTIL,-15.8278532,-47.9287387,,ROOFTOP,,Asa Sul,70390-700,,SHLS 716 Bloco F,,,
São Paulo,Paranapanema,,,Brazil,,,HOSPITAL MUNICIPAL LEONARDUS VAN MELLIS,-23.3871632,-48.72694449999999,,ROOFTOP,,Centro,18720-000,,,Rua Urias Domingues Leite,s/n,
São Paulo,São Bernardo do Campo,,,Brazil,,,UPA UNIAO ALVARENGA,-23.740817,-46.598149,,ROOFTOP,,Alvarenga,09850-550,,,Estrada dos Alvarengas,5779,
São Paulo,São Bernardo do Campo,,,Brazil,,,UPA RIACHO GRANDE,-23.781974,-46.5298759,,ROOFTOP,,Rio Grande,09830-291,,,Rua Marcílio Conrado,333,
São Paulo,Santo André,,,Brazil,,,AME SANTO ANDRE DR NEWTON DA COSTA BRANDAO,-23.6914348,-46.50773419999999,,ROOFTOP,,Vila America,09110-305,,,Avenida Capitão Mário Toledo de Camargo,3330,
São Paulo,Franca,,,Brazil,,,AME AMBULATORIO MEDICO DE ESPECIALIDADES DE FRANCA,-20.5407701,-47.4034416,,ROOFTOP,,Centro,14400-350,,,Rua Doutor Alcindo Ribeiro Conrado,1395,
Santa Catarina,Itapema,,,Brazil,,,HOSPITAL MUNICIPAL SANTO ANTONIO,-27.0953166,-48.624438,,ROOFTOP,,Varzea,88220-000,,,Rua Setecentos,679,
São Paulo,Suzano,,,Brazil,,,SANTA CASA DE SUZANO UNIDADE II,-23.5524383,-46.3073924,,ROOFTOP,,Vila Figueira,08676-000,,,Avenida Antônio Marques Figueira,1861,
São Paulo,Caieiras,,,Brazil,,,HOSPITAL DE CLINICAS CAIEIRAS,-23.3619795,-46.7440674,,ROOFTOP,,Centro,07700-135,,,Rua Ambrosina do Carmo Buonaguide,204,
São Paulo,São Bernardo do Campo,,,Brazil,,,UPA PAULICEIA TABOAO,-23.6709261,-46.5830719,,ROOFTOP,,Paulicéia,09692-060,,,Rua Pedro de Tolêdo,326,
São Paulo,São Bernardo do Campo,,,Brazil,,,UPA BAETA NEVES,-23.6998662,-46.5438421,,ROOFTOP,,Baeta Neves,09760-001,,,Rua dos Vianas,933,
,,,,,,,HOSPITAL ESTADUAL DR ALBANO DA FRANCA ROCHA SOBRINHO,,,,,,,,,,,,
São Paulo,São Paulo,,,Brazil,,,IBCC UNIDADE JACANA,-23.4705912,-46.5871212,,ROOFTOP,,Vila Constança,02272-000,,,Rua Roque de Paula Monteiro,245,
São Paulo,Mauá,,,Brazil,,,UPA ZAIRA,-23.6548915,-46.4480502,,ROOFTOP,,Vila Magini,09320-796,,,Avenida Washington Luiz,1952,
São Paulo,São Caetano do Sul,,,Brazil,,,UNIDADE HOSPITALAR MUNICIPAL DE SAO CAETANO DO SUL,-23.617571,-46.556677,,ROOFTOP,,Santa Paula,09551-340,,,Rua Aurélia,257,
São Paulo,Araraquara,,,Brazil,,,MATERNIDADE GOTA DE LEITE DE ARARAQUARA,-21.7938684,-48.1788363,,ROOFTOP,,,14801-340,,,Rua Carlos Gomes,1610,
São Paulo,Mauá,,,Brazil,,,UPA VILA ASSIS,-23.6868589,-46.4600499,,ROOFTOP,,Vila Assis Brasil,09370-670,,,Avenida Dom José Gaspar,2190,
,,,,,,,UPA MAGINI CENTRO,,,,,,,,,,,,
São Paulo,São Vicente,,,Brazil,,,HOSPITAL E MATERNIDADE MUNICIPAL DE SAO VICENTE,-23.9644434,-46.3871385,,ROOFTOP,,Centro,11310-420,,,Rua Ipiranga,370,
,,,,,,,HOSPITAL DIA SANTA RITA,,,,,,,,,,,,
São Paulo,São Paulo,,,Brazil,,,BP HOSPITAL FILANTROPICO,-23.5293447,-46.5496954,,ROOFTOP,,Penha de França,03632-040,,,Rua General Sócrates,nº 145,
São Paulo,Jundiaí,,,Brazil,,,AME AMBULATORIO MEDICO DE ESPECIALIDADES JUNDIAI,-23.1848009,-46.8857734,,ROOFTOP,,Centro,13201-000,,,Rua Rangel Pestana,531,
São Paulo,São Paulo,,,Brazil,,,HOSPITAL DIA DA REDE HORA CERTA CAMPO LIMPO,-23.6315871,-46.76604380000001,,ROOFTOP,,Jardim Martinica,05760-140,,,Avenida Amadeu da Silva Samelo,423,
São Paulo,São Paulo,,,Brazil,,,HOSPITAL DIA DA REDE HORA CERTA LAPA,-23.5242398,-46.7012527,,ROOFTOP,,Vila Romana,05041-000,,,Rua Catão,380,
São Paulo,Santos,,,Brazil,,,COMPLEXO HOSPITALAR DOS ESTIVADORES,-23.9514129,-46.322084,,ROOFTOP,,Encruzilhada,11045-910,,,Avenida Conselheiro Nébias,401,
São Paulo,São Paulo,,,Brazil,,,HOSPITAL DIA DA REDE HORA CERTA BRASILANDIA FO,-23.4734032,-46.6840088,,ROOFTOP,,Jardim do Tiro,02842-260,,,Rua Rui de Morais Apocalipse,2,
São Paulo,Santo André,,,Brazil,,,UPA SACADURA CABRAL,-23.6564836,-46.55779949999999,,ROOFTOP,,Vila Sacadura Cabral,09061-260,,,Rua Lauro Müler,354,
São Paulo,São Bernardo do Campo,,,Brazil,,,UPA RUDGE RAMOS,-23.6553785,-46.5742749,,ROOFTOP,,Rudge Ramos,09624-070,,,Rua Ângela Tomé,256,
São Paulo,Santo André,,,Brazil,,,UPA JARDIM SANTO ANDRE,-23.7072412,-46.4957348,,ROOFTOP,,Jardim Santo André,09132-150,,,Rua Tom Jobim,396,
São Paulo,São Bernardo do Campo,,,Brazil,,,UPA ALVES DIAS ASSUNCAO,-23.724438,-46.5770485,,ROOFTOP,,Jardim Colonial,09850-305,,,Avenida Humberto de Alencar Castelo Branco,4169,
São Paulo,Jales,,,Brazil,,,HOSPITAL DE AMOR JALES,-20.2617243,-50.5578328,,ROOFTOP,,Vila Maria,15706-396,,,Avenida Francisco Jalles,3737,
Bogotá,,,,Colombia,,,UPA CENTRO,4.622733999999999,-74.09164299999999,Bogotá,ROOFTOP,Cundinamarca,Puente Aranda,111611,,,Calle 19,3494,
São Paulo,São Bernardo do Campo,,,Brazil,,,UPA SILVINA,-23.7272123,-46.5486045,,ROOFTOP,,Ferrazópolis,09790-400,,,Avenida Doutor José Fornari,509,
São Paulo,Ourinhos,,,Brazil,,,AME AMBULATORIO MEDICO DE ESPECIALIDADES DE OURINHOS,-22.94925,-49.8969572,,ROOFTOP,,Jardim das Paineiras,19910-206,,,Avenida Vitalina Marcusso,1550,
São Paulo,São Bernardo do Campo,,,Brazil,,,PRONTO SOCORRO CENTRAL,-23.7154563,-46.5556394,,ROOFTOP,,Centro,09720-375,,,Rua Secondo Modolin,490,
São Paulo,São Miguel Arcanjo,,,Brazil,,,HOSPITAL SAO MIGUEL ARCANJO,-23.8734668,-47.9995023,,ROOFTOP,,Centro,18230-000,,,Rua Tadashi Takenaka,100,
São Paulo,Sorocaba,,,Brazil,,,HOSPITAL OFTALMOLOGICO SOROCABA UNID OTORRINOLARINGOLOGIA,-23.5154692,-47.4601693,,ROOFTOP,,Jardim Emilia,18031-060,,,Praça Nabek Shiroma,210,
São Paulo,São Vicente,,,Brazil,,,HOSPITAL DR OLAVO HORNEAUX DE MOURA SAO VICENTE,-23.9499347,-46.4597761,,ROOFTOP,,Conjunto Residencial Humaitá,11349-000,,,R. Alfredo Shamas,s/nº,
São Paulo,São Bernardo do Campo,,,Brazil,,,HOSPITAL DE CLINICAS MUNICIPAL,-23.7330826,-46.5785008,,ROOFTOP,,Assunção,09850-550,,,Estrada dos Alvarengas,1001,
São Paulo,São Paulo,,,Brazil,,,HOSPITAL DIA DA REDE HORA CERTA M BOI MIRIM II,-23.6663751,-46.7363112,,ROOFTOP,,Jardim Santa Josefina,05819-080,,,Rua Philippe de Vitry,280,
São Paulo,São Paulo,,,Brazil,,,HORA CERTA MOVEL CIRURGICO CIES,-23.6446504,-46.7018913,,ROOFTOP,,Santo Amaro,04750-001,,,Rua Doutor Antônio Bento,711,
São Paulo,Ribeirão Preto,,,Brazil,,,HOSPITAL DE RETAGUARDA FRANCISCO DE ASSIS RIBEIRAO PRETO,-21.1848513,-47.8431188,,ROOFTOP,,Solar Boavista,14030-635,,,Rua Manoel Egydio dos Santos,53,
São Paulo,Mogi das Cruzes,,,Brazil,,,HOSP MUN DE MOGI DAS CRUZES PREF WALDEMAR COSTA FILHO,-23.540887,-46.22113299999999,,ROOFTOP,,Vila Lavinia,08740-300,,,Rua Guttermann,577,
São Paulo,Guarujá,,,Brazil,,,INST DE INFECT EMILIO RIBAS II BAIXADA SANTISTA,-23.950143,-46.291301,,ROOFTOP,,Sítio Paecara (Vicente de Carvalho),11460-200,,,Rua São Miguel,760,
Tocantins,Palmas,,,Brazil,,,INSTITUTO DA VISAO,-10.2104209,-48.32642999999999,,GEOMETRIC_CENTER,,Plano Diretor Sul,,,,,,
São Paulo,Jundiaí,,,Brazil,,,HOSPITAL REGIONAL DE JUNDIAI,-23.1824286,-46.8899581,,GEOMETRIC_CENTER,,Centro,13201-625,,,Avenida Professor Luiz Rosa,,
São Paulo,Caieiras,,,Brazil,,,HOSPITAL ESTADUAL DE CAIEIRAS,-23.3666969,-46.7504909,,ROOFTOP,,Centro,07700-600,,,Rua Flávio Augusto de Moares,100,
São Paulo,Ribeirão Preto,,,Brazil,,,CANTINHO DO CEU RIBEIRAO PRETO,-21.145792,-47.8092974,,ROOFTOP,,Vila Albertina,14060-190,,,Rua Rio Verde,357,
,,,,,,,PS JOSE IBRAHIN,,,,,,,,,,,,
State of São Paulo,Limeira,,,Brazil,,,HOL SERVICOS MEDICOS OFTALMOLOGICOS SS LIMEIRA,-22.5838264,-47.4097695,Limeira,APPROXIMATE,,,,,,,,
,,,,,,,HOSP MUN GILSON DE CASSIA MARQUES DE CARVALHO,,,,,,,,,,,,
São Paulo,Campos do Jordão,,,Brazil,,,COMPLEXO MUNICIPAL DE SAUDE,-22.7431278,-45.6249349,,ROOFTOP,,Jardim Panorama,12460-000,,,Rua Harry M. Levin,700,
São Paulo,São Paulo,,,Brazil,,,HOSPITAL DIA DA REDE HORA CERTA VILA GUILHERME VILA MARIA,-23.5162683,-46.6053681,,ROOFTOP,,Vila Guilherme,02054-100,,,Rua João Ventura Batista,615,
São Paulo,São Paulo,,,Brazil,,,HOSPITAL DIA REDE HORA CERTA DA CAPELA DO SOCORRO,-23.7294839,-46.7119602,,ROOFTOP,,Jardim das Imbuias,04829-310,,,Rua Cássio de Campos Nogueira,2031,
São Paulo,Luiziânia,,,Brazil,,,UNIDADE MISTA DE ATENDIMENTO A SAUDE DE LUIZIANIA,-21.6748547,-50.3271799,,ROOFTOP,,,16340-000,,,Praça Benedito Claudio,135,
São Paulo,Jaboticabal,,,Brazil,,,HOSPITAL SAO MARCOS JABOTICABAL,-21.2615987,-48.3054567,,ROOFTOP,,Jardim Sao Marcos I,14887-242,,,Avenida Aristídes Belodi,100,
São Paulo,Sorocaba,,,Brazil,,,CIES GLOBAL SOROCABA,-23.4470623,-47.4903765,,ROOFTOP,,Jardim Sao Guilherme,18074-650,,,Rua Belmiro Moreira Soares,1100,
Florida,Miami-Dade County,,,United States,,,CIES GLOBAL III,25.7588823,-80.37683299999999,Miami,ROOFTOP,,,33199,,,Southwest 8th Street,11200,
Georgia,Cobb County,,,United States,,,CIES GLOBAL II,33.9714254,-84.5468678,Marietta,ROOFTOP,,,30060,,,Canton Road Northeast,780,#205
São Paulo,Piracicaba,,,Brazil,,,HOSPITAL REGIONAL DE PIRACICABA,-22.7612469,-47.5840123,,ROOFTOP,,Santa Rita,13423-227,,,Avenida Antônio Elias,1000,
State of São Paulo,Sorocaba,,,Brazil,,,HOSPITAL REGIONAL DE SOROCABA,-23.5268433,-47.5181614,,GEOMETRIC_CENTER,,,,,,,,
São Paulo,São José dos Campos,,,Brazil,,,HOSPITAL REGIONAL DE SAO JOSE DOS CAMPOS,-23.2385319,-45.9075462,,ROOFTOP,,Parque Industrial,12235-625,,,Rua Goiânia,345,
,,,,,,,HOSPITAL REGIONAL DE REGISTRO REGISTRO,,,,,,,,,,,,
